{"type": "FeatureCollection", "name": "river_corridor_2km", "crs": {"type": "name", "properties": {"name": "EPSG:32642"}}, "features": [{"type": "Feature", "properties": {"corridor_distance_m": 2000, "purpose": "exposure screening; not inundation"}, "geometry": {"type": "Polygon", "coordinates": [[[289070.7042704103, 4324185.317104009], [288986.7877340844, 4324362.74371293], [288920.66612764256, 4324547.541223152], [288872.9762383005, 4324737.929933628], [288844.1773457626, 4324932.076297002], [288834.546799107, 4325128.110577661], [288844.1773457626, 4325324.144858319], [288872.9762383005, 4325518.291221693], [288920.66612764256, 4325708.67993217], [288986.7877340844, 4325893.477442391], [289070.7042704103, 4326070.904051312], [289171.6075745019, 4326239.2510437], [289288.5258923815, 4326396.8971459875], [289382.4036976574, 4326500.475342604], [289391.92211717094, 4326516.355866159], [289412.9762383005, 4326658.291221693], [289442.89138304867, 4326777.719174052], [289442.9762383005, 4326778.291221693], [289490.66612764256, 4326968.67993217], [289556.7877340844, 4327153.477442391], [289640.7042704103, 4327330.904051312], [289741.6075745019, 4327499.2510437], [289858.5258923815, 4327656.8971459875], [289990.3332367339, 4327802.324140034], [290080.3332367339, 4327892.324140034], [290225.7602307797, 4328024.1314843865], [290383.4063330678, 4328141.049802266], [290430.83992979466, 4328169.480406025], [290473.4063330678, 4328201.049802266], [290520.2158383675, 4328229.10634002], [290525.7602307797, 4328234.1314843865], [290683.4063330678, 4328351.049802266], [290712.4461830615, 4328368.45561851], [290770.3332367339, 4328432.324140034], [291010.3332367339, 4328672.324140034], [291155.7602307797, 4328804.1314843865], [291219.16408192256, 4328851.154985222], [291460.3332367339, 4329092.324140034], [291471.78010997834, 4329102.698981193], [291571.6075745019, 4329269.2510437], [291688.5258923815, 4329426.8971459875], [291820.3332367339, 4329572.324140034], [292043.1507034422, 4329795.141606742], [292051.6075745019, 4329809.2510437], [292093.58425736736, 4329865.8500485495], [292100.7042704103, 4329880.904051312], [292108.39544031513, 4329893.735993071], [292130.7042704103, 4329940.904051312], [292137.1798683703, 4329951.707933804], [292144.1773457626, 4330094.144858319], [292166.27432285034, 4330243.110577661], [292144.1773457626, 4330392.076297002], [292134.546799107, 4330588.110577661], [292134.546799107, 4330678.110577661], [292144.1773457626, 4330874.144858319], [292145.6424726175, 4330884.021941279], [292136.7877340844, 4330902.74371293], [292070.66612764256, 4331087.541223152], [292022.9762383005, 4331277.929933628], [291994.1773457626, 4331472.076297002], [291984.546799107, 4331668.110577661], [291984.546799107, 4331698.110577661], [291994.1773457626, 4331894.144858319], [292022.9762383005, 4332088.291221693], [292070.66612764256, 4332278.67993217], [292136.7877340844, 4332463.477442391], [292220.7042704103, 4332640.904051312], [292321.6075745019, 4332809.2510437], [292353.1769707422, 4332851.817446972], [292381.6075745019, 4332899.2510437], [292474.63648400945, 4333024.686007612], [292490.66612764256, 4333088.67993217], [292556.7877340844, 4333273.477442391], [292640.7042704103, 4333450.904051312], [292741.6075745019, 4333619.2510437], [292858.5258923815, 4333776.8971459875], [292863.55103674775, 4333782.441538399], [292888.745116043, 4333824.4753202805], [292910.7042704103, 4333870.904051312], [293011.6075745019, 4334039.2510437], [293128.5258923815, 4334196.8971459875], [293260.3332367339, 4334342.324140034], [293318.26734668587, 4334400.258249986], [293371.6075745019, 4334489.2510437], [293488.5258923815, 4334646.8971459875], [293546.91782246134, 4334711.322712786], [293611.6075745019, 4334819.2510437], [293674.7463669825, 4334904.383850246], [293731.6075745019, 4334999.2510437], [293848.5258923815, 4335156.8971459875], [293980.3332367339, 4335302.324140034], [294370.3332367339, 4335692.324140034], [294442.40961779415, 4335757.650363961], [294500.7042704103, 4335880.904051312], [294601.6075745019, 4336049.2510437], [294718.5258923815, 4336206.8971459875], [294840.6468517228, 4336341.636861094], [294920.7042704103, 4336510.904051312], [295021.6075745019, 4336679.2510437], [295138.5258923815, 4336836.8971459875], [295186.6915997147, 4336890.039814691], [295258.5258923815, 4336986.8971459875], [295390.3332367339, 4337132.324140034], [295510.3332367339, 4337252.324140034], [295655.7602307797, 4337384.1314843865], [295783.42805553, 4337478.816396354], [295861.6075745019, 4337609.2510437], [295978.5258923815, 4337766.8971459875], [296110.3332367339, 4337912.324140034], [296260.3332367339, 4338062.324140034], [296405.7602307797, 4338194.1314843865], [296563.4063330678, 4338311.049802266], [296731.753325455, 4338411.953106358], [296909.1799343768, 4338495.869642683], [296956.32926999737, 4338512.739944724], [296957.403516074, 4338513.9251926225], [296960.7042704103, 4338520.904051312], [297061.6075745019, 4338689.2510437], [297178.5258923815, 4338846.8971459875], [297310.3332367339, 4338992.324140034], [297400.3332367339, 4339082.324140034], [297545.7602307797, 4339214.1314843865], [297703.4063330678, 4339331.049802266], [297871.753325455, 4339431.953106358], [298049.1799343768, 4339515.869642683], [298231.2084385285, 4339581.000482911], [298250.66612764256, 4339658.67993217], [298316.7877340844, 4339843.477442391], [298333.89321819134, 4339879.643949875], [298335.80533271824, 4339892.534378951], [298316.7877340844, 4339932.74371293], [298250.66612764256, 4340117.541223152], [298202.9762383005, 4340307.929933628], [298202.89138304867, 4340308.50198127], [298172.9762383005, 4340427.929933628], [298144.1773457626, 4340622.076297002], [298134.546799107, 4340818.110577661], [298134.546799107, 4340878.110577661], [298136.0206046001, 4340908.110577661], [298134.546799107, 4340938.110577661], [298134.546799107, 4341028.110577661], [298144.1773457626, 4341224.144858319], [298172.9762383005, 4341418.291221693], [298220.66612764256, 4341608.67993217], [298286.7877340844, 4341793.477442391], [298321.8960348357, 4341867.707707605], [298324.1773457626, 4341914.144858319], [298325.2111068653, 4341921.113909592], [298310.7042704103, 4341945.317104009], [298226.7877340844, 4342122.74371293], [298198.18736793654, 4342202.676381538], [298100.7042704103, 4342365.317104009], [298016.7877340844, 4342542.74371293], [297950.66612764256, 4342727.541223152], [297902.9762383005, 4342917.929933628], [297874.1773457626, 4343112.076297002], [297864.546799107, 4343308.110577661], [297871.7818847507, 4343455.384129245], [297781.6075745019, 4343576.970111622], [297680.7042704103, 4343745.317104009], [297596.7877340844, 4343922.74371293], [297530.66612764256, 4344107.541223152], [297529.42511553183, 4344112.4956212165], [297514.03966937726, 4344133.240493895], [297508.5258923815, 4344139.324009334], [297391.6075745019, 4344296.970111622], [297290.7042704103, 4344465.317104009], [297246.08661021997, 4344559.653220491], [297230.7042704103, 4344585.317104009], [297208.39544031513, 4344632.48516225], [297200.7042704103, 4344645.317104009], [297116.7877340844, 4344822.74371293], [297050.66612764256, 4345007.541223152], [297040.38458393334, 4345048.587446481], [296990.66612764256, 4345187.541223152], [296942.9762383005, 4345377.929933628], [296914.1773457626, 4345572.076297002], [296904.546799107, 4345768.110577661], [296904.546799107, 4345798.110577661], [296914.1773457626, 4345994.144858319], [296942.9762383005, 4346188.291221693], [296990.66612764256, 4346378.67993217], [297056.7877340844, 4346563.477442391], [297140.7042704103, 4346740.904051312], [297145.57448012393, 4346749.029505329], [297147.4944100932, 4346788.110577661], [297144.546799107, 4346848.110577661], [297154.1773457626, 4347044.144858319], [297182.9762383005, 4347238.291221693], [297191.067079487, 4347270.591670308], [297212.9762383005, 4347418.291221693], [297224.23212014604, 4347463.227220904], [297182.9762383005, 4347627.929933628], [297154.1773457626, 4347822.076297002], [297144.546799107, 4348018.110577661], [297144.546799107, 4348078.110577661], [297154.1773457626, 4348274.144858319], [297174.79316146596, 4348413.125398683], [297184.1773457626, 4348604.144858319], [297212.9762383005, 4348798.291221693], [297260.66612764256, 4348988.67993217], [297270.891386232, 4349017.257615478], [297274.1773457626, 4349084.144858319], [297302.9762383005, 4349278.291221693], [297321.9792312678, 4349354.15542218], [297332.9762383005, 4349428.291221693], [297356.15376348206, 4349520.821088972], [297364.1773457626, 4349684.144858319], [297392.9762383005, 4349878.291221693], [297440.66612764256, 4350068.67993217], [297506.7877340844, 4350253.477442391], [297590.7042704103, 4350430.904051312], [297691.6075745019, 4350599.2510437], [297808.5258923815, 4350756.8971459875], [297940.3332367339, 4350902.324140034], [298240.3332367339, 4351202.324140034], [298281.89629119384, 4351239.994696779], [298310.7042704103, 4351300.904051312], [298411.6075745019, 4351469.2510437], [298528.5258923815, 4351626.8971459875], [298660.3332367339, 4351772.324140034], [298750.3332367339, 4351862.324140034], [298895.7602307797, 4351994.1314843865], [299053.4063330678, 4352111.049802266], [299221.753325455, 4352211.953106358], [299373.5788033587, 4352283.761209489], [299383.4063330678, 4352291.049802266], [299551.753325455, 4352391.953106358], [299646.089441934, 4352436.570766547], [299671.753325455, 4352451.953106358], [299718.9213836945, 4352474.261936452], [299731.753325455, 4352481.953106358], [299873.2575001735, 4352548.879596641], [299911.753325455, 4352571.953106358], [300089.1799343768, 4352655.869642683], [300273.97744459804, 4352721.991249125], [300464.36615507473, 4352769.681138467], [300658.5125184479, 4352798.480031005], [300854.546799107, 4352808.110577661], [300914.546799107, 4352808.110577661], [301081.5503558519, 4352799.906219018], [301175.70712324843, 4352856.341613545], [301303.4063330678, 4352951.049802266], [301398.2735265215, 4353007.911009786], [301483.4063330678, 4353071.049802266], [301651.753325455, 4353171.953106358], [301829.1799343768, 4353255.869642683], [302013.97744459804, 4353321.991249125], [302204.36615507473, 4353369.681138467], [302398.5125184479, 4353398.480031005], [302594.546799107, 4353408.110577661], [302624.546799107, 4353406.636772168], [302635.03160912654, 4353407.151857854], [302759.1799343768, 4353465.869642683], [302943.97744459804, 4353531.991249125], [303134.36615507473, 4353579.681138467], [303328.5125184479, 4353608.480031005], [303524.546799107, 4353618.110577661], [303584.546799107, 4353618.110577661], [303780.5810797661, 4353608.480031005], [303974.72744313924, 4353579.681138467], [304050.59164362715, 4353560.6781455], [304124.72744313924, 4353549.681138467], [304315.11615361593, 4353501.991249125], [304499.9136638372, 4353435.869642683], [304677.340272759, 4353351.953106358], [304688.14415525185, 4353345.477508397], [304830.5810797661, 4353338.480031005], [305024.72744313924, 4353309.681138467], [305144.1553955008, 4353279.765993718], [305144.72744313924, 4353279.681138467], [305259.21506794065, 4353251.003481351], [305310.5810797661, 4353248.480031005], [305504.72744313924, 4353219.681138467], [305624.1553955008, 4353189.765993718], [305624.72744313924, 4353189.681138467], [305669.6634423499, 4353178.425256622], [305834.36615507473, 4353219.681138467], [306028.5125184479, 4353248.480031005], [306224.546799107, 4353258.110577661], [306284.546799107, 4353258.110577661], [306479.546799107, 4353248.530841956], [306637.0181547185, 4353256.266913585], [306760.3332367339, 4353392.324140034], [306970.3332367339, 4353602.324140034], [307115.7602307797, 4353734.1314843865], [307273.4063330678, 4353851.049802266], [307441.753325455, 4353951.953106358], [307619.1799343768, 4354035.869642683], [307798.6169426919, 4354100.073230875], [307801.753325455, 4354101.953106358], [307979.1799343768, 4354185.869642683], [308163.97744459804, 4354251.991249125], [308354.36615507473, 4354299.681138467], [308428.5019545868, 4354310.6781455], [308504.36615507473, 4354329.681138467], [308698.5125184479, 4354358.480031005], [308894.546799107, 4354368.110577661], [309090.5810797661, 4354358.480031005], [309284.72744313924, 4354329.681138467], [309475.11615361593, 4354281.991249125], [309659.9136638372, 4354215.869642683], [309837.340272759, 4354131.953106358], [310005.6872651462, 4354031.049802266], [310163.3333674343, 4353914.1314843865], [310308.76036148006, 4353782.324140034], [310440.5677058325, 4353636.8971459875], [310557.4860237121, 4353479.2510437], [310658.3893278037, 4353310.904051312], [310742.30586412956, 4353133.477442391], [310808.4274705714, 4352948.67993217], [310856.1173599135, 4352758.291221693], [310884.91625245137, 4352564.144858319], [310894.546799107, 4352368.110577661], [310884.91625245137, 4352172.076297002], [310856.1173599135, 4351977.929933628], [310808.4274705714, 4351787.541223152], [310742.30586412956, 4351602.74371293], [310658.3893278037, 4351425.317104009], [310557.4860237121, 4351256.970111622], [310440.5677058325, 4351099.324009334], [310308.76036148006, 4350953.897015288], [310278.76036148006, 4350923.897015288], [310133.3333674343, 4350792.089670935], [310069.9295162914, 4350745.066170099], [310068.76036148006, 4350743.897015288], [310030.036496731, 4350708.799750099], [310028.3893278037, 4350705.317104009], [309927.4860237121, 4350536.970111622], [309810.5677058325, 4350379.324009334], [309678.76036148006, 4350233.897015288], [309618.76036148006, 4350173.897015288], [309473.3333674343, 4350042.089670935], [309315.6872651462, 4349925.171353055], [309147.340272759, 4349824.2680489635], [308969.9136638372, 4349740.351512638], [308785.11615361593, 4349674.229906196], [308594.72744313924, 4349626.540016854], [308520.59164362715, 4349615.543009821], [308444.72744313924, 4349596.540016854], [308436.8597230893, 4349595.3729508305], [308355.6872651462, 4349535.171353055], [308187.340272759, 4349434.2680489635], [308009.9136638372, 4349350.351512638], [307825.11615361593, 4349284.229906196], [307634.72744313924, 4349236.540016854], [307440.5810797661, 4349207.741124316], [307244.546799107, 4349198.110577661], [307034.546799107, 4349198.110577661], [306838.5125184479, 4349207.741124316], [306764.546799107, 4349218.712902338], [306690.5810797661, 4349207.741124316], [306623.6938369246, 4349204.4551647855], [306595.11615361593, 4349194.229906196], [306404.72744313924, 4349146.540016854], [306210.5810797661, 4349117.741124316], [306014.546799107, 4349108.110577661], [305864.546799107, 4349108.110577661], [305804.546799107, 4349111.058188647], [305744.546799107, 4349108.110577661], [305684.546799107, 4349108.110577661], [305639.546799107, 4349110.321285901], [305594.546799107, 4349108.110577661], [305474.546799107, 4349108.110577661], [305278.5125184479, 4349117.741124316], [305084.36615507473, 4349146.540016854], [304893.97744459804, 4349194.229906196], [304879.723438375, 4349199.330071174], [304708.5125184479, 4349207.741124316], [304544.546799107, 4349232.063141217], [304427.02789175353, 4349214.63085804], [304394.72744313924, 4349206.540016854], [304200.5810797661, 4349177.741124316], [304004.546799107, 4349168.110577661], [303808.5125184479, 4349177.741124316], [303614.36615507473, 4349206.540016854], [303423.97744459804, 4349254.229906196], [303317.15807575063, 4349292.450487517], [303150.5810797661, 4349267.741124316], [303131.67570920946, 4349266.812363017], [303108.76036148006, 4349243.897015288], [302963.3333674343, 4349112.089670935], [302805.6872651462, 4348995.171353055], [302637.340272759, 4348894.2680489635], [302459.9136638372, 4348810.351512638], [302275.11615361593, 4348744.229906196], [302084.72744313924, 4348696.540016854], [301890.5810797661, 4348667.741124316], [301694.546799107, 4348658.110577661], [301574.546799107, 4348658.110577661], [301499.546799107, 4348661.795091393], [301424.546799107, 4348658.110577661], [301406.0236136396, 4348658.110577661], [301379.7500681619, 4348629.122187367], [301379.15299261233, 4348628.317124183], [301374.91625245137, 4348542.076297002], [301346.1173599135, 4348347.929933628], [301308.6187824708, 4348198.227220904], [301316.1173599135, 4348168.291221693], [301338.02651872695, 4348020.591670308], [301346.1173599135, 4347988.291221693], [301374.91625245137, 4347794.144858319], [301384.546799107, 4347598.110577661], [301384.546799107, 4347328.110577661], [301374.91625245137, 4347132.076297002], [301346.1173599135, 4346937.929933628], [301298.4274705714, 4346747.541223152], [301232.30586412956, 4346562.74371293], [301206.3117193761, 4346507.783711513], [301203.67784017656, 4346500.4225122845], [301203.0729936139, 4346488.110577661], [301204.546799107, 4346458.110577661], [301204.546799107, 4346398.110577661], [301194.91625245137, 4346202.076297002], [301174.8633657766, 4346066.890715892], [301238.3893278037, 4345960.904051312], [301322.30586412956, 4345783.477442391], [301377.1803596808, 4345630.11350134], [301407.4860237121, 4345589.2510437], [301508.3893278037, 4345420.904051312], [301530.69815789885, 4345373.735993071], [301538.3893278037, 4345360.904051312], [301622.30586412956, 4345183.477442391], [301688.4274705714, 4344998.67993217], [301736.1173599135, 4344808.291221693], [301758.1113739788, 4344660.019622667], [301793.38555785903, 4344519.197186828], [301862.30586412956, 4344373.477442391], [301928.4274705714, 4344188.67993217], [301976.1173599135, 4343998.291221693], [302004.91625245137, 4343804.144858319], [302014.546799107, 4343608.110577661], [302013.9899691254, 4343596.776042999], [302072.30586412956, 4343473.477442391], [302099.21548705146, 4343398.270084546], [302187.4860237121, 4343279.2510437], [302288.3893278037, 4343110.904051312], [302372.30586412956, 4342933.477442391], [302438.4274705714, 4342748.67993217], [302486.1173599135, 4342558.291221693], [302514.91625245137, 4342364.144858319], [302524.546799107, 4342168.110577661], [302524.546799107, 4342108.110577661], [302514.91625245137, 4341912.076297002], [302486.1173599135, 4341717.929933628], [302442.87720173463, 4341545.305545732], [302454.91625245137, 4341464.144858319], [302464.546799107, 4341268.110577661], [302464.546799107, 4341238.110577661], [302461.3183063692, 4341172.393098258], [302498.4274705714, 4341068.67993217], [302546.1173599135, 4340878.291221693], [302574.91625245137, 4340684.144858319], [302584.546799107, 4340488.110577661], [302584.546799107, 4340458.110577661], [302574.91625245137, 4340262.076297002], [302554.300436748, 4340123.095756638], [302544.91625245137, 4339932.076297002], [302516.1173599135, 4339737.929933628], [302468.4274705714, 4339547.541223152], [302418.90384002123, 4339409.1319479495], [302378.4274705714, 4339247.541223152], [302366.49384744477, 4339214.188980815], [302364.91625245137, 4339182.076297002], [302336.1173599135, 4338987.929933628], [302306.2022151653, 4338868.50198127], [302306.1173599135, 4338867.929933628], [302258.4274705714, 4338677.541223152], [302192.30586412956, 4338492.74371293], [302108.3893278037, 4338315.317104009], [302106.50945232064, 4338312.180721247], [302042.30586412956, 4338132.74371293], [301958.3893278037, 4337955.317104009], [301944.68839766894, 4337932.458483056], [301928.4274705714, 4337867.541223152], [301862.30586412956, 4337682.74371293], [301778.3893278037, 4337505.317104009], [301677.4860237121, 4337336.970111622], [301560.5677058325, 4337179.324009334], [301537.6616509487, 4337154.051072354], [301470.34848217096, 4337041.745835041], [301448.3893278037, 4336995.317104009], [301347.4860237121, 4336826.970111622], [301230.5677058325, 4336669.324009334], [301098.76036148006, 4336523.897015288], [301068.76036148006, 4336493.897015288], [300923.3333674343, 4336362.089670935], [300765.6872651462, 4336245.171353055], [300616.344168039, 4336155.658545445], [300615.6872651462, 4336155.171353055], [300447.340272759, 4336054.2680489635], [300432.286269996, 4336047.14803592], [300419.4168828742, 4336037.603447932], [300413.3333674343, 4336032.089670935], [300255.6872651462, 4335915.171353055], [300087.340272759, 4335814.2680489635], [300040.17221451947, 4335791.959218869], [300027.340272759, 4335784.2680489635], [299894.251336656, 4335721.321670126], [299778.76036148006, 4335593.897015288], [299628.76036148006, 4335443.897015288], [299483.3333674343, 4335312.089670935], [299325.6872651462, 4335195.171353055], [299288.0303896648, 4335172.600690497], [299243.3333674343, 4335132.089670935], [299128.17040906625, 4335046.678999951], [298998.76036148006, 4334903.897015288], [298925.94289477175, 4334831.07954858], [298917.4860237121, 4334816.970111622], [298800.5677058325, 4334659.324009334], [298668.76036148006, 4334513.897015288], [298608.76036148006, 4334453.897015288], [298463.3333674343, 4334322.089670935], [298305.6872651462, 4334205.171353055], [298299.0256370733, 4334201.178526848], [298260.5677058325, 4334149.324009334], [298255.5425614662, 4334143.779616922], [298227.4860237121, 4334096.970111622], [298192.9247431241, 4334050.369619299], [298172.30586412956, 4333992.74371293], [298088.3893278037, 4333815.317104009], [297987.4860237121, 4333646.970111622], [297986.9988313219, 4333646.313208727], [297897.4860237121, 4333496.970111622], [297780.5677058325, 4333339.324009334], [297648.76036148006, 4333193.897015288], [297588.76036148006, 4333133.897015288], [297443.3333674343, 4333002.089670935], [297285.6872651462, 4332885.171353055], [297186.91156405007, 4332825.96747621], [297083.3333674343, 4332732.089670935], [297068.03530687944, 4332720.743855967], [297045.5093408466, 4332690.371106772], [297038.3893278037, 4332675.317104009], [296937.4860237121, 4332506.970111622], [296820.5677058325, 4332349.324009334], [296741.69008214, 4332262.295962699], [296738.3893278037, 4332255.317104009], [296637.4860237121, 4332086.970111622], [296520.5677058325, 4331929.324009334], [296388.76036148006, 4331783.897015288], [296342.7819148048, 4331737.918568612], [296312.30586412956, 4331652.74371293], [296285.66177782946, 4331596.4095255695], [296288.4274705714, 4331588.67993217], [296336.1173599135, 4331398.291221693], [296364.91625245137, 4331204.144858319], [296374.546799107, 4331008.110577661], [296364.91625245137, 4330812.076297002], [296336.1173599135, 4330617.929933628], [296306.2022151653, 4330498.50198127], [296306.1173599135, 4330497.929933628], [296258.4274705714, 4330307.541223152], [296246.400681994, 4330273.9286008235], [296254.546799107, 4330108.110577661], [296254.546799107, 4330078.110577661], [296244.91625245137, 4329882.076297002], [296224.546799107, 4329744.756596756], [296224.546799107, 4329598.110577661], [296218.6515771346, 4329478.110577661], [296224.546799107, 4329358.110577661], [296214.91625245137, 4329162.076297002], [296186.1173599135, 4328967.929933628], [296138.4274705714, 4328777.541223152], [296072.30586412956, 4328592.74371293], [295988.3893278037, 4328415.317104009], [295980.69815789885, 4328402.48516225], [295958.3893278037, 4328355.317104009], [295857.4860237121, 4328186.970111622], [295740.5677058325, 4328029.324009334], [295661.69008214, 4327942.295962699], [295658.3893278037, 4327935.317104009], [295557.4860237121, 4327766.970111622], [295554.6749338641, 4327763.179795735], [295508.3893278037, 4327665.317104009], [295407.4860237121, 4327496.970111622], [295290.5677058325, 4327339.324009334], [295158.76036148006, 4327193.897015288], [295142.7819148048, 4327177.918568612], [295112.30586412956, 4327092.74371293], [295028.3893278037, 4326915.317104009], [295020.69815789885, 4326902.48516225], [294998.3893278037, 4326855.317104009], [294897.4860237121, 4326686.970111622], [294780.5677058325, 4326529.324009334], [294648.76036148006, 4326383.897015288], [294618.76036148006, 4326353.897015288], [294473.3333674343, 4326222.089670935], [294315.6872651462, 4326105.171353055], [294147.340272759, 4326004.2680489635], [294024.0865854065, 4325945.973396347], [293958.76036148006, 4325873.897015288], [293928.76036148006, 4325843.897015288], [293783.3333674343, 4325712.089670935], [293625.6872651462, 4325595.171353055], [293608.949748955, 4325585.139271923], [293598.76036148006, 4325573.897015288], [293572.82211495895, 4325547.958768766], [293546.1173599135, 4325367.929933628], [293498.4274705714, 4325177.541223152], [293432.30586412956, 4324992.74371293], [293348.3893278037, 4324815.317104009], [293340.69815789885, 4324802.48516225], [293318.3893278037, 4324755.317104009], [293217.4860237121, 4324586.970111622], [293154.34723123146, 4324501.8373050755], [293097.4860237121, 4324406.970111622], [293013.47110360814, 4324293.689105458], [292952.30586412956, 4324122.74371293], [292868.3893278037, 4323945.317104009], [292767.4860237121, 4323776.970111622], [292650.5677058325, 4323619.324009334], [292518.76036148006, 4323473.897015288], [292373.3333674343, 4323342.089670935], [292215.6872651462, 4323225.171353055], [292047.340272759, 4323124.2680489635], [291869.9136638372, 4323040.351512638], [291685.11615361593, 4322974.229906196], [291494.72744313924, 4322926.540016854], [291300.5810797661, 4322897.741124316], [291104.546799107, 4322888.110577661], [291074.546799107, 4322888.110577661], [290878.5125184479, 4322897.741124316], [290684.36615507473, 4322926.540016854], [290493.97744459804, 4322974.229906196], [290309.1799343768, 4323040.351512638], [290131.753325455, 4323124.2680489635], [289963.4063330678, 4323225.171353055], [289805.7602307797, 4323342.089670935], [289752.6175620772, 4323390.255378268], [289655.7602307797, 4323462.089670935], [289510.3332367339, 4323593.897015288], [289450.3332367339, 4323653.897015288], [289318.5258923815, 4323799.324009334], [289201.6075745019, 4323956.970111622], [289100.7042704103, 4324125.317104009], [289078.39544031513, 4324172.48516225], [289070.7042704103, 4324185.317104009]]]}}]}