{"type": "FeatureCollection", "name": "study_area_5km_buffer", "crs": {"type": "name", "properties": {"name": "EPSG:32642"}}, "features": [{"type": "Feature", "properties": {"buffer_distance_m": 5000, "purpose": "CIEWS context; not a flood boundary"}, "geometry": {"type": "Polygon", "coordinates": [[[284799.5468, 4338085.30873], [284799.5468, 4338193.11058], [284837.00902, 4338804.0269], [284898.50457, 4339134.95094], [284897.57718, 4339135.10551], [284927.57718, 4339315.10551], [284989.80022, 4339600.18071], [285035.28826, 4339925.0992], [285038.22275, 4339937.52989], [284973.62317, 4340373.02488], [284970.84982, 4340429.47771], [284943.62317, 4340613.02488], [284919.5468, 4341103.11058], [284919.5468, 4341253.11058], [284943.62317, 4341743.19628], [285015.6204, 4342228.56219], [285072.06215, 4342453.8903], [285033.62317, 4342713.02488], [285009.5468, 4343203.11058], [285009.5468, 4343293.11058], [285033.62317, 4343783.19628], [285105.6204, 4344268.56219], [285224.84512, 4344744.53396], [285348.75161, 4345090.82939], [285434.84512, 4345434.53396], [285600.14914, 4345896.52774], [285809.94048, 4346340.09426], [285840.70516, 4346391.42203], [285929.94048, 4346580.09426], [286129.03244, 4346912.25913], [286218.48973, 4347294.62809], [286363.79064, 4347730.53081], [286423.75015, 4347867.10894], [286496.13031, 4348084.24941], [286662.91767, 4348516.681], [286869.0302, 4348931.81078], [287112.69685, 4349326.07171], [287214.2033, 4349460.62631], [287412.19874, 4349790.96174], [287704.49453, 4350185.077], [288034.01289, 4350548.64448], [288397.58038, 4350878.16284], [288791.69563, 4351170.45864], [289212.56311, 4351422.7169], [289656.12964, 4351632.50824], [290118.12341, 4351797.81226], [290594.09519, 4351917.03698], [291079.4611, 4351989.03421], [291091.05839, 4351989.60395], [291173.05803, 4352001.76745], [291194.09519, 4352007.03698], [291679.4611, 4352079.03421], [292100.44045, 4352099.7156], [292159.57201, 4352275.46676], [292347.41084, 4352699.17856], [292407.41084, 4352819.17856], [292627.86004, 4353206.64795], [292634.84512, 4353234.53396], [292800.14914, 4353696.52774], [293009.94048, 4354140.09426], [293262.19874, 4354560.96174], [293554.49453, 4354955.077], [293884.01289, 4355318.64448], [293914.01289, 4355348.64448], [294277.58038, 4355678.16284], [294671.69563, 4355970.45864], [295092.56311, 4356222.7169], [295536.12964, 4356432.50824], [295998.12341, 4356597.81226], [296474.09519, 4356717.03698], [296622.36677, 4356739.03099], [296774.09519, 4356777.03698], [297259.4611, 4356849.03421], [297749.5468, 4356873.11058], [297779.5468, 4356873.11058], [298254.46276, 4356850.50496], [298682.34098, 4356789.0333], [298747.58038, 4356848.16284], [299141.69563, 4357140.45864], [299562.56311, 4357392.7169], [300006.12964, 4357602.50824], [300468.12341, 4357767.81226], [300944.09519, 4357887.03698], [301429.4611, 4357959.03421], [301919.5468, 4357983.11058], [302009.5468, 4357983.11058], [302499.6325, 4357959.03421], [302815.66859, 4357912.15469], [302929.4611, 4357929.03421], [302945.91835, 4357929.8427], [303254.09519, 4358007.03698], [303711.57889, 4358074.89827], [303847.58038, 4358198.16284], [304241.69563, 4358490.45864], [304323.09714, 4358539.24883], [304593.74285, 4358827.38198], [304954.58198, 4359144.24777], [305344.15463, 4359425.03586], [305758.86727, 4359667.15615], [306194.89443, 4359868.37524], [306648.21404, 4360026.83702], [306652.2953, 4360027.83664], [306708.12341, 4360047.81226], [306739.26827, 4360055.61364], [306801.54788, 4360112.06058], [306899.94048, 4360320.09426], [307152.19874, 4360740.96174], [307444.49453, 4361135.077], [307774.01289, 4361498.64448], [307864.01289, 4361588.64448], [307901.50774, 4361622.62783], [307921.36509, 4361644.54855], [308040.14914, 4361976.52774], [308136.72387, 4362180.71786], [308161.48457, 4362249.74859], [308371.17381, 4362692.40021], [308399.75028, 4362740.03007], [308384.84512, 4362781.68719], [308265.6204, 4363257.65897], [308193.62317, 4363743.02488], [308192.81468, 4363759.48213], [308115.6204, 4364067.65897], [308043.62317, 4364553.02488], [308019.5468, 4365043.11058], [308019.5468, 4365283.11058], [308041.02831, 4365746.09401], [308105.28826, 4366205.0992], [308211.77449, 4366656.18211], [308359.57201, 4367095.46676], [308423.56807, 4367239.82396], [308509.69067, 4367462.0056], [308725.405, 4367891.04655], [308981.28347, 4368297.41463], [309274.96576, 4368677.36136], [309603.74285, 4369027.38198], [309964.58198, 4369344.24777], [310162.10962, 4369486.61764], [310417.58038, 4369718.16284], [310811.69563, 4370010.45864], [311232.56311, 4370262.7169], [311676.12964, 4370472.50824], [312138.12341, 4370637.81226], [312294.38639, 4370676.9541], [312306.12964, 4370682.50824], [312387.08378, 4370711.4741], [312516.12964, 4370772.50824], [312978.12341, 4370937.81226], [313454.09519, 4371057.03698], [313939.4611, 4371129.03421], [314429.5468, 4371153.11058], [314459.5468, 4371153.11058], [314467.16495, 4371152.76017], [314509.4611, 4371159.03421], [314999.5468, 4371183.11058], [315089.5468, 4371183.11058], [315579.6325, 4371159.03421], [316064.99841, 4371087.03698], [316540.97019, 4370967.81226], [317002.96396, 4370802.50824], [317446.53048, 4370592.7169], [317867.39796, 4370340.45864], [318261.51322, 4370048.16284], [318281.49312, 4370030.05412], [318624.6354, 4369787.85686], [319004.38544, 4369457.9536], [319349.06489, 4369091.56266], [319532.46849, 4368852.41067], [319720.68399, 4368638.0754], [320001.47208, 4368248.50274], [320243.59237, 4367833.7901], [320254.52516, 4367810.09953], [320387.39796, 4367730.45864], [320781.51322, 4367438.16284], [320819.06669, 4367404.12636], [321054.6354, 4367237.85686], [321434.38544, 4366907.9536], [321535.45558, 4366800.51701], [321603.79758, 4366747.69162], [321953.8182, 4366418.91453], [322270.68399, 4366058.0754], [322551.47208, 4365668.50274], [322793.59237, 4365253.7901], [322994.81146, 4364817.76295], [323018.82425, 4364749.06835], [323038.94446, 4364706.52774], [323204.24848, 4364244.53396], [323323.4732, 4363768.56219], [323395.47043, 4363283.19628], [323416.84522, 4362848.10255], [323529.07665, 4362410.41053], [323604.36585, 4361914.28456], [323629.5468, 4361413.11058], [323629.5468, 4361203.11058], [323600.81785, 4360667.88711], [323578.24901, 4360528.81169], [323575.5558, 4360473.89237], [323503.81302, 4359989.36889], [323391.27721, 4359539.26856], [323523.33936, 4359180.02166], [323648.58443, 4358692.82568], [323724.24217, 4358195.51074], [323749.5468, 4357693.11058], [323749.5468, 4357603.11058], [323728.06529, 4357140.12715], [323663.80534, 4356681.12195], [323557.31911, 4356230.03904], [323520.36195, 4356120.19474], [323486.24054, 4355981.82422], [323342.27365, 4355562.2275], [323258.82593, 4355374.99905], [323188.94446, 4355179.69342], [323124.79155, 4355044.05349], [323107.31911, 4354970.03904], [322959.52159, 4354530.75439], [322771.68275, 4354107.0426], [322681.68275, 4353927.0426], [322434.36943, 4353488.99881], [322189.5468, 4353142.13692], [322189.5468, 4353133.11058], [322168.06529, 4352670.12715], [322103.80534, 4352211.12195], [322083.3757, 4352124.58062], [322078.06529, 4352010.12715], [322034.80243, 4351701.10297], [322029.80969, 4351621.21915], [321984.24875, 4351191.54292], [321901.76128, 4350767.40465], [321853.27018, 4350597.83277], [321838.06529, 4350270.12715], [321773.80534, 4349811.12195], [321667.31911, 4349360.03904], [321519.52159, 4348920.75439], [321331.68275, 4348497.0426], [321301.68275, 4348437.0426], [321054.36943, 4347998.99881], [320764.29308, 4347588.02197], [320434.38982, 4347208.27194], [320067.99888, 4346863.59249], [319668.82882, 4346557.4724], [319240.91997, 4346293.01019], [319161.39692, 4346254.30894], [318976.53048, 4346143.50426], [318532.96396, 4345933.71292], [318070.97019, 4345768.4089], [317768.31185, 4345692.59694], [317560.97019, 4345618.4089], [317402.00804, 4345578.59096], [317362.61833, 4345565.33827], [317127.7835, 4345509.90129], [317084.99841, 4345499.18418], [317077.96657, 4345498.14111], [316911.53542, 4345458.85204], [316452.53023, 4345394.59209], [315989.5468, 4345373.11058], [315899.5468, 4345373.11058], [315436.56337, 4345394.59209], [314977.55818, 4345458.85204], [314526.47526, 4345565.33827], [314383.60947, 4345613.40553], [314377.11619, 4345614.31458], [313864.32333, 4345641.83953], [313335.25043, 4345727.69624], [313316.58762, 4345732.82368], [313037.39796, 4345525.76252], [312896.22577, 4345441.14716], [312811.08982, 4345358.13872], [312518.53514, 4345126.49758], [312508.94446, 4345099.69342], [312299.15312, 4344656.12689], [312046.89486, 4344235.25941], [311984.97962, 4344151.77637], [311914.36971, 4344026.7114], [311896.17592, 4343979.54015], [311690.06339, 4343564.41037], [311446.39674, 4343170.14945], [311167.2697, 4342800.14512], [310989.31686, 4342604.8755], [310975.47043, 4342323.02488], [310903.4732, 4341837.65897], [310854.55506, 4341642.3668], [310843.4732, 4341567.65897], [310724.24848, 4341091.68719], [310558.94446, 4340629.69342], [310349.15312, 4340186.12689], [310096.89486, 4339765.25941], [310064.58367, 4339721.69281], [310035.15063, 4339672.65076], [309742.27547, 4339278.31496], [309412.12088, 4338914.61932], [309047.87319, 4338585.07388], [308653.04778, 4338292.85911], [308563.04778, 4338232.85911], [308142.68581, 4337981.45139], [307948.25609, 4337889.67956], [307765.08071, 4337687.57667], [307401.51322, 4337358.05831], [307329.24443, 4337304.46013], [307257.21449, 4337152.50356], [307004.81821, 4336732.154], [306712.46523, 4336338.54586], [306480.60956, 4336083.05881], [306446.56837, 4336011.29753], [306194.12628, 4335591.1204], [305901.75439, 4335197.68107], [305572.26269, 4334834.7609], [305208.81795, 4334505.84793], [304814.91323, 4334214.10335], [304394.33438, 4333962.33112], [304061.10689, 4333804.90896], [304069.5468, 4333633.11058], [304069.5468, 4333603.11058], [304045.47043, 4333113.02488], [303973.4732, 4332627.65897], [303854.24848, 4332151.68719], [303688.94446, 4331689.69342], [303554.68443, 4331405.82444], [303553.4732, 4331397.65897], [303434.24848, 4330921.68719], [303268.94446, 4330459.69342], [303059.84789, 4330017.59586], [302938.94446, 4329679.69342], [302729.15312, 4329236.12689], [302612.83567, 4329042.06294], [302559.40292, 4328904.21556], [302453.50006, 4328693.58207], [302432.96329, 4328631.97175], [302266.17592, 4328199.54015], [302060.06339, 4327784.41037], [301816.39674, 4327390.14945], [301537.2697, 4327020.14512], [301225.08071, 4326677.57667], [301195.08071, 4326647.57667], [300831.51322, 4326318.05831], [300575.05959, 4326127.85934], [300471.97557, 4326034.42944], [300408.1083, 4325915.85112], [300129.5468, 4325503.11058], [300099.2566, 4325462.72364], [299986.89486, 4325275.25941], [299694.59907, 4324881.14416], [299365.08071, 4324517.57667], [299335.08071, 4324487.57667], [298971.51322, 4324158.05831], [298577.39796, 4323865.76252], [298156.53048, 4323613.50426], [298109.36242, 4323591.19543], [298096.53048, 4323583.50426], [297652.96396, 4323373.71292], [297190.97019, 4323208.4089], [297157.52357, 4323200.03096], [297046.53048, 4323133.50426], [296930.65223, 4323078.69793], [296908.76408, 4323049.923], [296605.08071, 4322717.57667], [296545.08071, 4322657.57667], [296319.69282, 4322453.297], [296184.59907, 4322271.14416], [295855.08071, 4321907.57667], [295823.6069, 4321879.05048], [295795.08071, 4321847.57667], [295431.51322, 4321518.05831], [295037.39796, 4321225.76252], [294616.53048, 4320973.50426], [294172.96396, 4320763.71292], [293737.4865, 4320607.89659], [293446.53048, 4320433.50426], [293002.96396, 4320223.71292], [292540.97019, 4320058.4089], [292064.99841, 4319939.18418], [291579.6325, 4319867.18694], [291089.5468, 4319843.11058], [291059.5468, 4319843.11058], [290596.56337, 4319864.59209], [290431.21467, 4319887.74063], [290240.32859, 4319897.10158], [289755.80512, 4319968.84436], [289280.62606, 4320087.65045], [288819.35142, 4320252.37972], [288376.40779, 4320461.45139], [287956.04582, 4320712.85911], [287866.04582, 4320772.85911], [287471.22041, 4321065.07388], [287106.97272, 4321394.61932], [286776.81812, 4321758.31496], [286483.94297, 4322152.65076], [286231.17381, 4322573.82095], [286020.95013, 4323017.76079], [285855.30082, 4323480.1858], [285735.82457, 4323956.63307], [285663.67446, 4324442.50439], [285660.88383, 4324499.24845], [285633.62317, 4324683.02488], [285609.5468, 4325173.11058], [285609.5468, 4325323.11058], [285633.62317, 4325813.19628], [285705.6204, 4326298.56219], [285824.84512, 4326774.53396], [285925.97453, 4327057.17173], [285931.02831, 4327166.09401], [285995.28826, 4327625.0992], [286101.77449, 4328076.18211], [286231.02082, 4328460.3288], [286265.28826, 4328705.0992], [286365.53398, 4329129.74688], [286139.94048, 4329506.12689], [286028.39634, 4329741.96716], [285989.94048, 4329806.12689], [285780.14914, 4330249.69342], [285614.84512, 4330711.68719], [285495.6204, 4331187.65897], [285423.62317, 4331673.02488], [285399.5468, 4332163.11058], [285399.5468, 4332223.11058], [285401.67644, 4332269.00992], [285314.84512, 4332511.68719], [285195.6204, 4332987.65897], [285123.62317, 4333473.02488], [285099.5468, 4333963.11058], [285099.5468, 4334083.11058], [285121.02831, 4334546.09401], [285137.9123, 4334666.69539], [285123.62317, 4334763.02488], [285099.5468, 4335253.11058], [285099.5468, 4335313.11058], [285106.20601, 4335448.66186], [284954.84512, 4335871.68719], [284835.6204, 4336347.65897], [284763.62317, 4336833.02488], [284739.5468, 4337323.11058], [284739.5468, 4337353.11058], [284777.00902, 4337964.0269], [284799.5468, 4338085.30873]]]}}]}