{"type": "FeatureCollection", "crs": {"type": "name", "properties": {"name": "EPSG:32642"}}, "features": [{"type": "Feature", "properties": {"name": "Supplied Ayakchi Dam coordinate"}, "geometry": {"type": "Point", "coordinates": [308917.9999644597, 4352462.000017804]}}, {"type": "Feature", "properties": {"name": "Hydrologically snapped Ayakchi Dam", "snap_distance_m": 96.7743661075446}, "geometry": {"type": "Point", "coordinates": [308894.546799107, 4352368.110577661]}}, {"type": "Feature", "properties": {"name": "City-facing basin outlet"}, "geometry": {"type": "Point", "coordinates": [291104.546799107, 4324888.110577661]}}]}