{"type": "FeatureCollection", "crs": {"type": "name", "properties": {"name": "EPSG:32642"}}, "features": [{"type": "Feature", "properties": {"distance_km": 47.8607596976896}, "geometry": {"type": "LineString", "coordinates": [[308894.546799107, 4352368.110577661], [308864.546799107, 4352338.110577661], [308834.546799107, 4352338.110577661], [308804.546799107, 4352338.110577661], [308774.546799107, 4352338.110577661], [308744.546799107, 4352338.110577661], [308714.546799107, 4352308.110577661], [308684.546799107, 4352278.110577661], [308684.546799107, 4352248.110577661], [308684.546799107, 4352218.110577661], [308684.546799107, 4352188.110577661], [308654.546799107, 4352158.110577661], [308624.546799107, 4352158.110577661], [308594.546799107, 4352158.110577661], [308564.546799107, 4352158.110577661], [308534.546799107, 4352188.110577661], [308504.546799107, 4352188.110577661], [308474.546799107, 4352188.110577661], [308444.546799107, 4352158.110577661], [308414.546799107, 4352188.110577661], [308384.546799107, 4352188.110577661], [308354.546799107, 4352158.110577661], [308324.546799107, 4352128.110577661], [308294.546799107, 4352098.110577661], [308264.546799107, 4352068.110577661], [308234.546799107, 4352038.110577661], [308204.546799107, 4352008.110577661], [308174.546799107, 4351978.110577661], [308174.546799107, 4351948.110577661], [308174.546799107, 4351918.110577661], [308144.546799107, 4351888.110577661], [308144.546799107, 4351858.110577661], [308144.546799107, 4351828.110577661], [308174.546799107, 4351798.110577661], [308204.546799107, 4351768.110577661], [308234.546799107, 4351738.110577661], [308234.546799107, 4351708.110577661], [308264.546799107, 4351678.110577661], [308264.546799107, 4351648.110577661], [308234.546799107, 4351618.110577661], [308204.546799107, 4351588.110577661], [308174.546799107, 4351618.110577661], [308144.546799107, 4351618.110577661], [308114.546799107, 4351618.110577661], [308084.546799107, 4351588.110577661], [308054.546799107, 4351558.110577661], [308024.546799107, 4351588.110577661], [307994.546799107, 4351588.110577661], [307964.546799107, 4351588.110577661], [307934.546799107, 4351588.110577661], [307904.546799107, 4351588.110577661], [307874.546799107, 4351588.110577661], [307844.546799107, 4351588.110577661], [307814.546799107, 4351588.110577661], [307784.546799107, 4351558.110577661], [307754.546799107, 4351528.110577661], [307724.546799107, 4351528.110577661], [307694.546799107, 4351498.110577661], [307664.546799107, 4351498.110577661], [307634.546799107, 4351468.110577661], [307604.546799107, 4351438.110577661], [307574.546799107, 4351438.110577661], [307544.546799107, 4351408.110577661], [307514.546799107, 4351408.110577661], [307484.546799107, 4351438.110577661], [307454.546799107, 4351408.110577661], [307424.546799107, 4351378.110577661], [307394.546799107, 4351348.110577661], [307364.546799107, 4351318.110577661], [307334.546799107, 4351288.110577661], [307304.546799107, 4351258.110577661], [307274.546799107, 4351228.110577661], [307244.546799107, 4351198.110577661], [307214.546799107, 4351198.110577661], [307184.546799107, 4351198.110577661], [307154.546799107, 4351198.110577661], [307124.546799107, 4351198.110577661], [307094.546799107, 4351198.110577661], [307064.546799107, 4351198.110577661], [307034.546799107, 4351198.110577661], [307004.546799107, 4351228.110577661], [306974.546799107, 4351258.110577661], [306944.546799107, 4351258.110577661], [306914.546799107, 4351258.110577661], [306884.546799107, 4351258.110577661], [306854.546799107, 4351258.110577661], [306824.546799107, 4351258.110577661], [306794.546799107, 4351258.110577661], [306764.546799107, 4351258.110577661], [306734.546799107, 4351258.110577661], [306704.546799107, 4351258.110577661], [306674.546799107, 4351258.110577661], [306644.546799107, 4351228.110577661], [306614.546799107, 4351228.110577661], [306584.546799107, 4351228.110577661], [306554.546799107, 4351228.110577661], [306524.546799107, 4351228.110577661], [306494.546799107, 4351198.110577661], [306464.546799107, 4351228.110577661], [306434.546799107, 4351228.110577661], [306404.546799107, 4351228.110577661], [306374.546799107, 4351228.110577661], [306344.546799107, 4351228.110577661], [306314.546799107, 4351228.110577661], [306284.546799107, 4351258.110577661], [306254.546799107, 4351258.110577661], [306224.546799107, 4351258.110577661], [306194.546799107, 4351228.110577661], [306164.546799107, 4351198.110577661], [306134.546799107, 4351168.110577661], [306104.546799107, 4351168.110577661], [306074.546799107, 4351168.110577661], [306044.546799107, 4351138.110577661], [306014.546799107, 4351108.110577661], [305984.546799107, 4351108.110577661], [305954.546799107, 4351108.110577661], [305924.546799107, 4351108.110577661], [305894.546799107, 4351108.110577661], [305864.546799107, 4351108.110577661], [305834.546799107, 4351138.110577661], [305804.546799107, 4351138.110577661], [305774.546799107, 4351138.110577661], [305744.546799107, 4351108.110577661], [305714.546799107, 4351108.110577661], [305684.546799107, 4351108.110577661], [305654.546799107, 4351138.110577661], [305624.546799107, 4351138.110577661], [305594.546799107, 4351108.110577661], [305564.546799107, 4351108.110577661], [305534.546799107, 4351108.110577661], [305504.546799107, 4351108.110577661], [305474.546799107, 4351108.110577661], [305444.546799107, 4351138.110577661], [305414.546799107, 4351168.110577661], [305384.546799107, 4351168.110577661], [305354.546799107, 4351168.110577661], [305324.546799107, 4351168.110577661], [305294.546799107, 4351168.110577661], [305264.546799107, 4351198.110577661], [305234.546799107, 4351228.110577661], [305204.546799107, 4351228.110577661], [305174.546799107, 4351228.110577661], [305144.546799107, 4351228.110577661], [305114.546799107, 4351258.110577661], [305084.546799107, 4351258.110577661], [305054.546799107, 4351228.110577661], [305024.546799107, 4351228.110577661], [304994.546799107, 4351228.110577661], [304964.546799107, 4351228.110577661], [304934.546799107, 4351198.110577661], [304904.546799107, 4351198.110577661], [304874.546799107, 4351228.110577661], [304844.546799107, 4351258.110577661], [304814.546799107, 4351288.110577661], [304784.546799107, 4351288.110577661], [304754.546799107, 4351318.110577661], [304724.546799107, 4351318.110577661], [304694.546799107, 4351318.110577661], [304664.546799107, 4351318.110577661], [304634.546799107, 4351348.110577661], [304604.546799107, 4351318.110577661], [304574.546799107, 4351288.110577661], [304544.546799107, 4351288.110577661], [304514.546799107, 4351288.110577661], [304484.546799107, 4351288.110577661], [304454.546799107, 4351288.110577661], [304424.546799107, 4351258.110577661], [304394.546799107, 4351228.110577661], [304364.546799107, 4351228.110577661], [304334.546799107, 4351228.110577661], [304304.546799107, 4351258.110577661], [304274.546799107, 4351258.110577661], [304244.546799107, 4351228.110577661], [304214.546799107, 4351228.110577661], [304184.546799107, 4351198.110577661], [304154.546799107, 4351198.110577661], [304124.546799107, 4351228.110577661], [304094.546799107, 4351228.110577661], [304064.546799107, 4351198.110577661], [304034.546799107, 4351198.110577661], [304004.546799107, 4351168.110577661], [303974.546799107, 4351198.110577661], [303944.546799107, 4351228.110577661], [303914.546799107, 4351258.110577661], [303914.546799107, 4351288.110577661], [303914.546799107, 4351318.110577661], [303884.546799107, 4351348.110577661], [303854.546799107, 4351378.110577661], [303854.546799107, 4351408.110577661], [303854.546799107, 4351438.110577661], [303854.546799107, 4351468.110577661], [303824.546799107, 4351498.110577661], [303794.546799107, 4351528.110577661], [303764.546799107, 4351558.110577661], [303734.546799107, 4351588.110577661], [303704.546799107, 4351558.110577661], [303674.546799107, 4351558.110577661], [303644.546799107, 4351558.110577661], [303614.546799107, 4351588.110577661], [303584.546799107, 4351618.110577661], [303554.546799107, 4351618.110577661], [303524.546799107, 4351618.110577661], [303494.546799107, 4351588.110577661], [303464.546799107, 4351558.110577661], [303434.546799107, 4351528.110577661], [303404.546799107, 4351498.110577661], [303374.546799107, 4351498.110577661], [303344.546799107, 4351498.110577661], [303314.546799107, 4351528.110577661], [303284.546799107, 4351498.110577661], [303254.546799107, 4351468.110577661], [303224.546799107, 4351438.110577661], [303194.546799107, 4351408.110577661], [303164.546799107, 4351408.110577661], [303134.546799107, 4351408.110577661], [303104.546799107, 4351408.110577661], [303074.546799107, 4351378.110577661], [303044.546799107, 4351348.110577661], [303014.546799107, 4351318.110577661], [302984.546799107, 4351288.110577661], [302954.546799107, 4351258.110577661], [302924.546799107, 4351258.110577661], [302894.546799107, 4351288.110577661], [302864.546799107, 4351288.110577661], [302834.546799107, 4351288.110577661], [302804.546799107, 4351288.110577661], [302774.546799107, 4351288.110577661], [302744.546799107, 4351318.110577661], [302714.546799107, 4351348.110577661], [302714.546799107, 4351378.110577661], [302684.546799107, 4351408.110577661], [302654.546799107, 4351408.110577661], [302624.546799107, 4351378.110577661], [302594.546799107, 4351408.110577661], [302564.546799107, 4351378.110577661], [302534.546799107, 4351348.110577661], [302504.546799107, 4351318.110577661], [302474.546799107, 4351318.110577661], [302444.546799107, 4351288.110577661], [302414.546799107, 4351288.110577661], [302384.546799107, 4351258.110577661], [302354.546799107, 4351228.110577661], [302384.546799107, 4351198.110577661], [302354.546799107, 4351168.110577661], [302324.546799107, 4351138.110577661], [302294.546799107, 4351168.110577661], [302264.546799107, 4351168.110577661], [302234.546799107, 4351138.110577661], [302204.546799107, 4351108.110577661], [302174.546799107, 4351108.110577661], [302144.546799107, 4351108.110577661], [302114.546799107, 4351078.110577661], [302084.546799107, 4351048.110577661], [302054.546799107, 4351018.110577661], [302024.546799107, 4350988.110577661], [301994.546799107, 4350958.110577661], [301964.546799107, 4350928.110577661], [301934.546799107, 4350898.110577661], [301904.546799107, 4350868.110577661], [301874.546799107, 4350838.110577661], [301844.546799107, 4350808.110577661], [301814.546799107, 4350778.110577661], [301784.546799107, 4350748.110577661], [301754.546799107, 4350718.110577661], [301724.546799107, 4350688.110577661], [301694.546799107, 4350658.110577661], [301664.546799107, 4350658.110577661], [301634.546799107, 4350658.110577661], [301604.546799107, 4350658.110577661], [301574.546799107, 4350658.110577661], [301544.546799107, 4350688.110577661], [301514.546799107, 4350688.110577661], [301484.546799107, 4350688.110577661], [301454.546799107, 4350688.110577661], [301424.546799107, 4350658.110577661], [301394.546799107, 4350658.110577661], [301364.546799107, 4350658.110577661], [301334.546799107, 4350688.110577661], [301304.546799107, 4350688.110577661], [301274.546799107, 4350688.110577661], [301244.546799107, 4350688.110577661], [301214.546799107, 4350718.110577661], [301184.546799107, 4350718.110577661], [301154.546799107, 4350748.110577661], [301124.546799107, 4350748.110577661], [301094.546799107, 4350718.110577661], [301064.546799107, 4350718.110577661], [301034.546799107, 4350718.110577661], [301004.546799107, 4350718.110577661], [300974.546799107, 4350748.110577661], [300944.546799107, 4350778.110577661], [300914.546799107, 4350808.110577661], [300884.546799107, 4350808.110577661], [300854.546799107, 4350808.110577661], [300824.546799107, 4350778.110577661], [300794.546799107, 4350748.110577661], [300764.546799107, 4350718.110577661], [300734.546799107, 4350688.110577661], [300704.546799107, 4350688.110577661], [300674.546799107, 4350718.110577661], [300644.546799107, 4350688.110577661], [300614.546799107, 4350688.110577661], [300584.546799107, 4350658.110577661], [300554.546799107, 4350628.110577661], [300524.546799107, 4350628.110577661], [300494.546799107, 4350628.110577661], [300464.546799107, 4350598.110577661], [300434.546799107, 4350568.110577661], [300404.546799107, 4350538.110577661], [300374.546799107, 4350508.110577661], [300344.546799107, 4350478.110577661], [300314.546799107, 4350478.110577661], [300284.546799107, 4350448.110577661], [300254.546799107, 4350448.110577661], [300224.546799107, 4350448.110577661], [300194.546799107, 4350448.110577661], [300164.546799107, 4350448.110577661], [300134.546799107, 4350418.110577661], [300104.546799107, 4350388.110577661], [300074.546799107, 4350358.110577661], [300074.546799107, 4350328.110577661], [300104.546799107, 4350298.110577661], [300104.546799107, 4350268.110577661], [300074.546799107, 4350238.110577661], [300044.546799107, 4350208.110577661], [300044.546799107, 4350178.110577661], [300014.546799107, 4350148.110577661], [299984.546799107, 4350118.110577661], [299954.546799107, 4350088.110577661], [299924.546799107, 4350058.110577661], [299924.546799107, 4350028.110577661], [299924.546799107, 4349998.110577661], [299894.546799107, 4349968.110577661], [299864.546799107, 4349938.110577661], [299834.546799107, 4349908.110577661], [299804.546799107, 4349878.110577661], [299774.546799107, 4349848.110577661], [299774.546799107, 4349818.110577661], [299744.546799107, 4349788.110577661], [299714.546799107, 4349758.110577661], [299684.546799107, 4349788.110577661], [299654.546799107, 4349788.110577661], [299624.546799107, 4349758.110577661], [299594.546799107, 4349728.110577661], [299564.546799107, 4349698.110577661], [299534.546799107, 4349668.110577661], [299504.546799107, 4349638.110577661], [299474.546799107, 4349608.110577661], [299444.546799107, 4349578.110577661], [299414.546799107, 4349548.110577661], [299384.546799107, 4349518.110577661], [299354.546799107, 4349488.110577661], [299354.546799107, 4349458.110577661], [299354.546799107, 4349428.110577661], [299384.546799107, 4349398.110577661], [299384.546799107, 4349368.110577661], [299384.546799107, 4349338.110577661], [299384.546799107, 4349308.110577661], [299414.546799107, 4349278.110577661], [299414.546799107, 4349248.110577661], [299384.546799107, 4349218.110577661], [299384.546799107, 4349188.110577661], [299384.546799107, 4349158.110577661], [299384.546799107, 4349128.110577661], [299354.546799107, 4349098.110577661], [299324.546799107, 4349068.110577661], [299294.546799107, 4349038.110577661], [299294.546799107, 4349008.110577661], [299294.546799107, 4348978.110577661], [299294.546799107, 4348948.110577661], [299294.546799107, 4348918.110577661], [299264.546799107, 4348888.110577661], [299264.546799107, 4348858.110577661], [299294.546799107, 4348828.110577661], [299324.546799107, 4348798.110577661], [299354.546799107, 4348768.110577661], [299384.546799107, 4348738.110577661], [299354.546799107, 4348708.110577661], [299324.546799107, 4348678.110577661], [299294.546799107, 4348648.110577661], [299294.546799107, 4348618.110577661], [299294.546799107, 4348588.110577661], [299264.546799107, 4348558.110577661], [299234.546799107, 4348528.110577661], [299234.546799107, 4348498.110577661], [299234.546799107, 4348468.110577661], [299204.546799107, 4348438.110577661], [299174.546799107, 4348408.110577661], [299174.546799107, 4348378.110577661], [299174.546799107, 4348348.110577661], [299174.546799107, 4348318.110577661], [299174.546799107, 4348288.110577661], [299204.546799107, 4348258.110577661], [299234.546799107, 4348228.110577661], [299234.546799107, 4348198.110577661], [299234.546799107, 4348168.110577661], [299204.546799107, 4348138.110577661], [299174.546799107, 4348108.110577661], [299144.546799107, 4348078.110577661], [299144.546799107, 4348048.110577661], [299144.546799107, 4348018.110577661], [299174.546799107, 4347988.110577661], [299204.546799107, 4347958.110577661], [299204.546799107, 4347928.110577661], [299234.546799107, 4347898.110577661], [299264.546799107, 4347868.110577661], [299294.546799107, 4347838.110577661], [299324.546799107, 4347808.110577661], [299354.546799107, 4347778.110577661], [299324.546799107, 4347748.110577661], [299294.546799107, 4347718.110577661], [299294.546799107, 4347688.110577661], [299324.546799107, 4347658.110577661], [299354.546799107, 4347628.110577661], [299384.546799107, 4347598.110577661], [299384.546799107, 4347568.110577661], [299384.546799107, 4347538.110577661], [299384.546799107, 4347508.110577661], [299384.546799107, 4347478.110577661], [299384.546799107, 4347448.110577661], [299384.546799107, 4347418.110577661], [299384.546799107, 4347388.110577661], [299384.546799107, 4347358.110577661], [299384.546799107, 4347328.110577661], [299354.546799107, 4347298.110577661], [299354.546799107, 4347268.110577661], [299324.546799107, 4347238.110577661], [299324.546799107, 4347208.110577661], [299324.546799107, 4347178.110577661], [299294.546799107, 4347148.110577661], [299264.546799107, 4347118.110577661], [299234.546799107, 4347088.110577661], [299204.546799107, 4347058.110577661], [299174.546799107, 4347028.110577661], [299174.546799107, 4346998.110577661], [299174.546799107, 4346968.110577661], [299174.546799107, 4346938.110577661], [299204.546799107, 4346908.110577661], [299174.546799107, 4346878.110577661], [299144.546799107, 4346848.110577661], [299174.546799107, 4346818.110577661], [299204.546799107, 4346788.110577661], [299174.546799107, 4346758.110577661], [299144.546799107, 4346728.110577661], [299144.546799107, 4346698.110577661], [299174.546799107, 4346668.110577661], [299174.546799107, 4346638.110577661], [299144.546799107, 4346608.110577661], [299144.546799107, 4346578.110577661], [299174.546799107, 4346548.110577661], [299204.546799107, 4346518.110577661], [299174.546799107, 4346488.110577661], [299204.546799107, 4346458.110577661], [299204.546799107, 4346428.110577661], [299204.546799107, 4346398.110577661], [299174.546799107, 4346368.110577661], [299174.546799107, 4346338.110577661], [299144.546799107, 4346308.110577661], [299144.546799107, 4346278.110577661], [299144.546799107, 4346248.110577661], [299114.546799107, 4346218.110577661], [299144.546799107, 4346188.110577661], [299174.546799107, 4346158.110577661], [299174.546799107, 4346128.110577661], [299174.546799107, 4346098.110577661], [299174.546799107, 4346068.110577661], [299174.546799107, 4346038.110577661], [299144.546799107, 4346008.110577661], [299114.546799107, 4346008.110577661], [299084.546799107, 4345978.110577661], [299054.546799107, 4345948.110577661], [299024.546799107, 4345918.110577661], [298994.546799107, 4345888.110577661], [298964.546799107, 4345858.110577661], [298934.546799107, 4345828.110577661], [298904.546799107, 4345798.110577661], [298904.546799107, 4345768.110577661], [298934.546799107, 4345738.110577661], [298964.546799107, 4345708.110577661], [298964.546799107, 4345678.110577661], [298964.546799107, 4345648.110577661], [298964.546799107, 4345618.110577661], [298964.546799107, 4345588.110577661], [298994.546799107, 4345558.110577661], [298994.546799107, 4345528.110577661], [299024.546799107, 4345498.110577661], [299054.546799107, 4345468.110577661], [299084.546799107, 4345438.110577661], [299054.546799107, 4345408.110577661], [299084.546799107, 4345378.110577661], [299114.546799107, 4345348.110577661], [299144.546799107, 4345318.110577661], [299144.546799107, 4345288.110577661], [299174.546799107, 4345258.110577661], [299204.546799107, 4345228.110577661], [299234.546799107, 4345198.110577661], [299264.546799107, 4345198.110577661], [299294.546799107, 4345168.110577661], [299324.546799107, 4345168.110577661], [299354.546799107, 4345138.110577661], [299384.546799107, 4345108.110577661], [299414.546799107, 4345078.110577661], [299444.546799107, 4345048.110577661], [299474.546799107, 4345018.110577661], [299474.546799107, 4344988.110577661], [299444.546799107, 4344958.110577661], [299444.546799107, 4344928.110577661], [299414.546799107, 4344898.110577661], [299414.546799107, 4344868.110577661], [299414.546799107, 4344838.110577661], [299414.546799107, 4344808.110577661], [299444.546799107, 4344778.110577661], [299474.546799107, 4344748.110577661], [299444.546799107, 4344718.110577661], [299444.546799107, 4344688.110577661], [299474.546799107, 4344658.110577661], [299504.546799107, 4344628.110577661], [299534.546799107, 4344598.110577661], [299564.546799107, 4344568.110577661], [299594.546799107, 4344538.110577661], [299624.546799107, 4344538.110577661], [299654.546799107, 4344568.110577661], [299684.546799107, 4344538.110577661], [299714.546799107, 4344508.110577661], [299744.546799107, 4344478.110577661], [299744.546799107, 4344448.110577661], [299774.546799107, 4344418.110577661], [299744.546799107, 4344388.110577661], [299744.546799107, 4344358.110577661], [299744.546799107, 4344328.110577661], [299744.546799107, 4344298.110577661], [299744.546799107, 4344268.110577661], [299774.546799107, 4344238.110577661], [299804.546799107, 4344208.110577661], [299804.546799107, 4344178.110577661], [299804.546799107, 4344148.110577661], [299834.546799107, 4344118.110577661], [299804.546799107, 4344088.110577661], [299834.546799107, 4344058.110577661], [299804.546799107, 4344028.110577661], [299804.546799107, 4343998.110577661], [299834.546799107, 4343968.110577661], [299864.546799107, 4343938.110577661], [299864.546799107, 4343908.110577661], [299834.546799107, 4343878.110577661], [299864.546799107, 4343848.110577661], [299864.546799107, 4343818.110577661], [299864.546799107, 4343788.110577661], [299894.546799107, 4343758.110577661], [299924.546799107, 4343728.110577661], [299924.546799107, 4343698.110577661], [299954.546799107, 4343668.110577661], [299984.546799107, 4343638.110577661], [300014.546799107, 4343608.110577661], [299984.546799107, 4343578.110577661], [299954.546799107, 4343548.110577661], [299924.546799107, 4343518.110577661], [299954.546799107, 4343488.110577661], [299954.546799107, 4343458.110577661], [299984.546799107, 4343428.110577661], [299954.546799107, 4343398.110577661], [299924.546799107, 4343368.110577661], [299894.546799107, 4343338.110577661], [299864.546799107, 4343308.110577661], [299894.546799107, 4343278.110577661], [299924.546799107, 4343248.110577661], [299954.546799107, 4343218.110577661], [299984.546799107, 4343188.110577661], [300014.546799107, 4343158.110577661], [300014.546799107, 4343128.110577661], [299984.546799107, 4343098.110577661], [300014.546799107, 4343068.110577661], [300044.546799107, 4343038.110577661], [300074.546799107, 4343008.110577661], [300104.546799107, 4342978.110577661], [300104.546799107, 4342948.110577661], [300104.546799107, 4342918.110577661], [300074.546799107, 4342888.110577661], [300104.546799107, 4342858.110577661], [300134.546799107, 4342828.110577661], [300134.546799107, 4342798.110577661], [300164.546799107, 4342768.110577661], [300194.546799107, 4342738.110577661], [300224.546799107, 4342708.110577661], [300224.546799107, 4342678.110577661], [300224.546799107, 4342648.110577661], [300254.546799107, 4342618.110577661], [300254.546799107, 4342588.110577661], [300254.546799107, 4342558.110577661], [300254.546799107, 4342528.110577661], [300254.546799107, 4342498.110577661], [300284.546799107, 4342468.110577661], [300314.546799107, 4342438.110577661], [300344.546799107, 4342408.110577661], [300314.546799107, 4342378.110577661], [300344.546799107, 4342348.110577661], [300374.546799107, 4342318.110577661], [300404.546799107, 4342288.110577661], [300434.546799107, 4342258.110577661], [300464.546799107, 4342228.110577661], [300494.546799107, 4342198.110577661], [300524.546799107, 4342168.110577661], [300524.546799107, 4342138.110577661], [300524.546799107, 4342108.110577661], [300494.546799107, 4342078.110577661], [300464.546799107, 4342048.110577661], [300434.546799107, 4342018.110577661], [300434.546799107, 4341988.110577661], [300464.546799107, 4341958.110577661], [300464.546799107, 4341928.110577661], [300464.546799107, 4341898.110577661], [300464.546799107, 4341868.110577661], [300434.546799107, 4341838.110577661], [300404.546799107, 4341808.110577661], [300374.546799107, 4341778.110577661], [300344.546799107, 4341748.110577661], [300314.546799107, 4341718.110577661], [300314.546799107, 4341688.110577661], [300344.546799107, 4341658.110577661], [300344.546799107, 4341628.110577661], [300344.546799107, 4341598.110577661], [300344.546799107, 4341568.110577661], [300344.546799107, 4341538.110577661], [300344.546799107, 4341508.110577661], [300374.546799107, 4341478.110577661], [300374.546799107, 4341448.110577661], [300404.546799107, 4341418.110577661], [300404.546799107, 4341388.110577661], [300404.546799107, 4341358.110577661], [300404.546799107, 4341328.110577661], [300434.546799107, 4341298.110577661], [300464.546799107, 4341268.110577661], [300464.546799107, 4341238.110577661], [300434.546799107, 4341208.110577661], [300434.546799107, 4341178.110577661], [300404.546799107, 4341148.110577661], [300374.546799107, 4341118.110577661], [300344.546799107, 4341118.110577661], [300314.546799107, 4341088.110577661], [300284.546799107, 4341088.110577661], [300254.546799107, 4341118.110577661], [300224.546799107, 4341118.110577661], [300194.546799107, 4341088.110577661], [300164.546799107, 4341058.110577661], [300134.546799107, 4341028.110577661], [300134.546799107, 4340998.110577661], [300134.546799107, 4340968.110577661], [300134.546799107, 4340938.110577661], [300164.546799107, 4340908.110577661], [300134.546799107, 4340878.110577661], [300134.546799107, 4340848.110577661], [300134.546799107, 4340818.110577661], [300164.546799107, 4340788.110577661], [300194.546799107, 4340758.110577661], [300164.546799107, 4340728.110577661], [300164.546799107, 4340698.110577661], [300194.546799107, 4340668.110577661], [300224.546799107, 4340638.110577661], [300254.546799107, 4340608.110577661], [300284.546799107, 4340578.110577661], [300314.546799107, 4340578.110577661], [300344.546799107, 4340578.110577661], [300374.546799107, 4340578.110577661], [300404.546799107, 4340578.110577661], [300434.546799107, 4340578.110577661], [300464.546799107, 4340578.110577661], [300494.546799107, 4340578.110577661], [300524.546799107, 4340548.110577661], [300554.546799107, 4340518.110577661], [300584.546799107, 4340488.110577661], [300584.546799107, 4340458.110577661], [300554.546799107, 4340428.110577661], [300524.546799107, 4340398.110577661], [300494.546799107, 4340368.110577661], [300464.546799107, 4340338.110577661], [300434.546799107, 4340308.110577661], [300404.546799107, 4340278.110577661], [300434.546799107, 4340248.110577661], [300464.546799107, 4340218.110577661], [300494.546799107, 4340188.110577661], [300524.546799107, 4340158.110577661], [300554.546799107, 4340128.110577661], [300524.546799107, 4340098.110577661], [300524.546799107, 4340068.110577661], [300494.546799107, 4340038.110577661], [300464.546799107, 4340008.110577661], [300464.546799107, 4339978.110577661], [300464.546799107, 4339948.110577661], [300464.546799107, 4339918.110577661], [300464.546799107, 4339888.110577661], [300464.546799107, 4339858.110577661], [300464.546799107, 4339828.110577661], [300434.546799107, 4339798.110577661], [300434.546799107, 4339768.110577661], [300404.546799107, 4339738.110577661], [300374.546799107, 4339708.110577661], [300344.546799107, 4339678.110577661], [300344.546799107, 4339648.110577661], [300314.546799107, 4339618.110577661], [300314.546799107, 4339588.110577661], [300314.546799107, 4339558.110577661], [300344.546799107, 4339528.110577661], [300374.546799107, 4339498.110577661], [300374.546799107, 4339468.110577661], [300374.546799107, 4339438.110577661], [300374.546799107, 4339408.110577661], [300374.546799107, 4339378.110577661], [300344.546799107, 4339348.110577661], [300314.546799107, 4339318.110577661], [300344.546799107, 4339288.110577661], [300344.546799107, 4339258.110577661], [300314.546799107, 4339228.110577661], [300284.546799107, 4339198.110577661], [300254.546799107, 4339168.110577661], [300224.546799107, 4339138.110577661], [300194.546799107, 4339108.110577661], [300164.546799107, 4339078.110577661], [300194.546799107, 4339048.110577661], [300194.546799107, 4339018.110577661], [300194.546799107, 4338988.110577661], [300194.546799107, 4338958.110577661], [300194.546799107, 4338928.110577661], [300194.546799107, 4338898.110577661], [300164.546799107, 4338868.110577661], [300134.546799107, 4338838.110577661], [300134.546799107, 4338808.110577661], [300104.546799107, 4338778.110577661], [300074.546799107, 4338748.110577661], [300044.546799107, 4338718.110577661], [300044.546799107, 4338688.110577661], [300044.546799107, 4338658.110577661], [300044.546799107, 4338628.110577661], [300044.546799107, 4338598.110577661], [300014.546799107, 4338568.110577661], [299984.546799107, 4338538.110577661], [299984.546799107, 4338508.110577661], [300014.546799107, 4338478.110577661], [300014.546799107, 4338448.110577661], [299984.546799107, 4338418.110577661], [299954.546799107, 4338388.110577661], [299924.546799107, 4338358.110577661], [299894.546799107, 4338328.110577661], [299864.546799107, 4338358.110577661], [299834.546799107, 4338328.110577661], [299804.546799107, 4338298.110577661], [299804.546799107, 4338268.110577661], [299804.546799107, 4338238.110577661], [299804.546799107, 4338208.110577661], [299804.546799107, 4338178.110577661], [299804.546799107, 4338148.110577661], [299774.546799107, 4338118.110577661], [299744.546799107, 4338088.110577661], [299714.546799107, 4338058.110577661], [299684.546799107, 4338028.110577661], [299684.546799107, 4337998.110577661], [299684.546799107, 4337968.110577661], [299684.546799107, 4337938.110577661], [299654.546799107, 4337908.110577661], [299624.546799107, 4337908.110577661], [299594.546799107, 4337878.110577661], [299564.546799107, 4337878.110577661], [299534.546799107, 4337848.110577661], [299504.546799107, 4337818.110577661], [299474.546799107, 4337818.110577661], [299444.546799107, 4337818.110577661], [299414.546799107, 4337818.110577661], [299384.546799107, 4337788.110577661], [299354.546799107, 4337758.110577661], [299324.546799107, 4337728.110577661], [299294.546799107, 4337698.110577661], [299264.546799107, 4337668.110577661], [299234.546799107, 4337668.110577661], [299204.546799107, 4337638.110577661], [299174.546799107, 4337608.110577661], [299144.546799107, 4337578.110577661], [299114.546799107, 4337578.110577661], [299084.546799107, 4337548.110577661], [299054.546799107, 4337548.110577661], [299024.546799107, 4337548.110577661], [298994.546799107, 4337578.110577661], [298964.546799107, 4337608.110577661], [298934.546799107, 4337638.110577661], [298904.546799107, 4337668.110577661], [298874.546799107, 4337668.110577661], [298844.546799107, 4337668.110577661], [298814.546799107, 4337668.110577661], [298784.546799107, 4337638.110577661], [298754.546799107, 4337608.110577661], [298724.546799107, 4337578.110577661], [298754.546799107, 4337548.110577661], [298754.546799107, 4337518.110577661], [298754.546799107, 4337488.110577661], [298754.546799107, 4337458.110577661], [298724.546799107, 4337428.110577661], [298724.546799107, 4337398.110577661], [298694.546799107, 4337368.110577661], [298664.546799107, 4337368.110577661], [298634.546799107, 4337368.110577661], [298604.546799107, 4337338.110577661], [298574.546799107, 4337308.110577661], [298544.546799107, 4337278.110577661], [298514.546799107, 4337248.110577661], [298484.546799107, 4337218.110577661], [298454.546799107, 4337188.110577661], [298424.546799107, 4337158.110577661], [298454.546799107, 4337128.110577661], [298424.546799107, 4337098.110577661], [298394.546799107, 4337068.110577661], [298364.546799107, 4337038.110577661], [298364.546799107, 4337008.110577661], [298334.546799107, 4336978.110577661], [298304.546799107, 4336948.110577661], [298274.546799107, 4336918.110577661], [298244.546799107, 4336888.110577661], [298214.546799107, 4336858.110577661], [298184.546799107, 4336858.110577661], [298154.546799107, 4336858.110577661], [298124.546799107, 4336858.110577661], [298094.546799107, 4336858.110577661], [298064.546799107, 4336828.110577661], [298034.546799107, 4336798.110577661], [298004.546799107, 4336768.110577661], [298004.546799107, 4336738.110577661], [298004.546799107, 4336708.110577661], [297974.546799107, 4336678.110577661], [297944.546799107, 4336678.110577661], [297914.546799107, 4336678.110577661], [297884.546799107, 4336678.110577661], [297854.546799107, 4336678.110577661], [297824.546799107, 4336648.110577661], [297794.546799107, 4336618.110577661], [297764.546799107, 4336588.110577661], [297734.546799107, 4336618.110577661], [297704.546799107, 4336618.110577661], [297674.546799107, 4336648.110577661], [297644.546799107, 4336618.110577661], [297614.546799107, 4336588.110577661], [297584.546799107, 4336558.110577661], [297554.546799107, 4336528.110577661], [297524.546799107, 4336498.110577661], [297524.546799107, 4336468.110577661], [297554.546799107, 4336438.110577661], [297584.546799107, 4336408.110577661], [297584.546799107, 4336378.110577661], [297584.546799107, 4336348.110577661], [297584.546799107, 4336318.110577661], [297554.546799107, 4336288.110577661], [297524.546799107, 4336258.110577661], [297494.546799107, 4336228.110577661], [297464.546799107, 4336198.110577661], [297434.546799107, 4336168.110577661], [297404.546799107, 4336138.110577661], [297374.546799107, 4336108.110577661], [297344.546799107, 4336078.110577661], [297314.546799107, 4336048.110577661], [297284.546799107, 4336018.110577661], [297254.546799107, 4335988.110577661], [297254.546799107, 4335958.110577661], [297254.546799107, 4335928.110577661], [297224.546799107, 4335898.110577661], [297194.546799107, 4335868.110577661], [297164.546799107, 4335898.110577661], [297134.546799107, 4335868.110577661], [297104.546799107, 4335838.110577661], [297074.546799107, 4335808.110577661], [297044.546799107, 4335778.110577661], [297014.546799107, 4335748.110577661], [296984.546799107, 4335778.110577661], [296954.546799107, 4335808.110577661], [296924.546799107, 4335838.110577661], [296894.546799107, 4335808.110577661], [296864.546799107, 4335778.110577661], [296834.546799107, 4335748.110577661], [296804.546799107, 4335718.110577661], [296804.546799107, 4335688.110577661], [296774.546799107, 4335658.110577661], [296744.546799107, 4335628.110577661], [296714.546799107, 4335598.110577661], [296684.546799107, 4335568.110577661], [296684.546799107, 4335538.110577661], [296714.546799107, 4335508.110577661], [296714.546799107, 4335478.110577661], [296714.546799107, 4335448.110577661], [296714.546799107, 4335418.110577661], [296684.546799107, 4335388.110577661], [296654.546799107, 4335358.110577661], [296624.546799107, 4335328.110577661], [296594.546799107, 4335298.110577661], [296564.546799107, 4335268.110577661], [296564.546799107, 4335238.110577661], [296564.546799107, 4335208.110577661], [296534.546799107, 4335178.110577661], [296504.546799107, 4335148.110577661], [296474.546799107, 4335148.110577661], [296444.546799107, 4335118.110577661], [296414.546799107, 4335088.110577661], [296384.546799107, 4335058.110577661], [296354.546799107, 4335028.110577661], [296324.546799107, 4334998.110577661], [296294.546799107, 4334968.110577661], [296264.546799107, 4334938.110577661], [296264.546799107, 4334908.110577661], [296294.546799107, 4334878.110577661], [296324.546799107, 4334848.110577661], [296324.546799107, 4334818.110577661], [296324.546799107, 4334788.110577661], [296324.546799107, 4334758.110577661], [296294.546799107, 4334728.110577661], [296264.546799107, 4334728.110577661], [296234.546799107, 4334698.110577661], [296204.546799107, 4334668.110577661], [296234.546799107, 4334638.110577661], [296234.546799107, 4334608.110577661], [296204.546799107, 4334578.110577661], [296174.546799107, 4334548.110577661], [296144.546799107, 4334548.110577661], [296114.546799107, 4334548.110577661], [296084.546799107, 4334548.110577661], [296054.546799107, 4334518.110577661], [296024.546799107, 4334488.110577661], [295994.546799107, 4334458.110577661], [295964.546799107, 4334428.110577661], [295934.546799107, 4334398.110577661], [295904.546799107, 4334368.110577661], [295874.546799107, 4334338.110577661], [295844.546799107, 4334308.110577661], [295814.546799107, 4334278.110577661], [295784.546799107, 4334278.110577661], [295754.546799107, 4334248.110577661], [295724.546799107, 4334218.110577661], [295694.546799107, 4334188.110577661], [295664.546799107, 4334158.110577661], [295634.546799107, 4334128.110577661], [295604.546799107, 4334098.110577661], [295574.546799107, 4334068.110577661], [295544.546799107, 4334038.110577661], [295514.546799107, 4334008.110577661], [295484.546799107, 4333978.110577661], [295454.546799107, 4333948.110577661], [295424.546799107, 4333918.110577661], [295394.546799107, 4333888.110577661], [295424.546799107, 4333858.110577661], [295394.546799107, 4333828.110577661], [295364.546799107, 4333798.110577661], [295334.546799107, 4333768.110577661], [295304.546799107, 4333738.110577661], [295274.546799107, 4333708.110577661], [295274.546799107, 4333678.110577661], [295274.546799107, 4333648.110577661], [295274.546799107, 4333618.110577661], [295244.546799107, 4333588.110577661], [295214.546799107, 4333558.110577661], [295184.546799107, 4333528.110577661], [295154.546799107, 4333498.110577661], [295124.546799107, 4333468.110577661], [295094.546799107, 4333438.110577661], [295064.546799107, 4333408.110577661], [295034.546799107, 4333378.110577661], [295034.546799107, 4333348.110577661], [295004.546799107, 4333318.110577661], [295004.546799107, 4333288.110577661], [294974.546799107, 4333258.110577661], [294974.546799107, 4333228.110577661], [294974.546799107, 4333198.110577661], [294944.546799107, 4333168.110577661], [294914.546799107, 4333138.110577661], [294884.546799107, 4333138.110577661], [294854.546799107, 4333108.110577661], [294824.546799107, 4333078.110577661], [294794.546799107, 4333048.110577661], [294764.546799107, 4333018.110577661], [294734.546799107, 4332988.110577661], [294704.546799107, 4332958.110577661], [294674.546799107, 4332928.110577661], [294674.546799107, 4332898.110577661], [294644.546799107, 4332868.110577661], [294644.546799107, 4332838.110577661], [294614.546799107, 4332808.110577661], [294614.546799107, 4332778.110577661], [294584.546799107, 4332748.110577661], [294554.546799107, 4332718.110577661], [294554.546799107, 4332688.110577661], [294524.546799107, 4332658.110577661], [294494.546799107, 4332628.110577661], [294494.546799107, 4332598.110577661], [294464.546799107, 4332568.110577661], [294434.546799107, 4332538.110577661], [294404.546799107, 4332508.110577661], [294434.546799107, 4332478.110577661], [294434.546799107, 4332448.110577661], [294464.546799107, 4332418.110577661], [294434.546799107, 4332388.110577661], [294434.546799107, 4332358.110577661], [294404.546799107, 4332328.110577661], [294404.546799107, 4332298.110577661], [294374.546799107, 4332268.110577661], [294344.546799107, 4332238.110577661], [294314.546799107, 4332208.110577661], [294314.546799107, 4332178.110577661], [294284.546799107, 4332148.110577661], [294284.546799107, 4332118.110577661], [294314.546799107, 4332088.110577661], [294284.546799107, 4332058.110577661], [294254.546799107, 4332028.110577661], [294254.546799107, 4331998.110577661], [294224.546799107, 4331968.110577661], [294194.546799107, 4331938.110577661], [294164.546799107, 4331908.110577661], [294134.546799107, 4331878.110577661], [294104.546799107, 4331848.110577661], [294074.546799107, 4331818.110577661], [294044.546799107, 4331788.110577661], [294044.546799107, 4331758.110577661], [294014.546799107, 4331728.110577661], [293984.546799107, 4331698.110577661], [293984.546799107, 4331668.110577661], [294014.546799107, 4331638.110577661], [294044.546799107, 4331608.110577661], [294074.546799107, 4331578.110577661], [294104.546799107, 4331548.110577661], [294134.546799107, 4331518.110577661], [294164.546799107, 4331488.110577661], [294194.546799107, 4331458.110577661], [294194.546799107, 4331428.110577661], [294164.546799107, 4331398.110577661], [294164.546799107, 4331368.110577661], [294164.546799107, 4331338.110577661], [294194.546799107, 4331308.110577661], [294224.546799107, 4331278.110577661], [294224.546799107, 4331248.110577661], [294254.546799107, 4331218.110577661], [294284.546799107, 4331188.110577661], [294284.546799107, 4331158.110577661], [294284.546799107, 4331128.110577661], [294284.546799107, 4331098.110577661], [294314.546799107, 4331068.110577661], [294344.546799107, 4331038.110577661], [294374.546799107, 4331008.110577661], [294344.546799107, 4330978.110577661], [294344.546799107, 4330948.110577661], [294344.546799107, 4330918.110577661], [294344.546799107, 4330888.110577661], [294314.546799107, 4330858.110577661], [294284.546799107, 4330858.110577661], [294254.546799107, 4330858.110577661], [294224.546799107, 4330828.110577661], [294224.546799107, 4330798.110577661], [294194.546799107, 4330768.110577661], [294164.546799107, 4330738.110577661], [294164.546799107, 4330708.110577661], [294134.546799107, 4330678.110577661], [294134.546799107, 4330648.110577661], [294134.546799107, 4330618.110577661], [294134.546799107, 4330588.110577661], [294164.546799107, 4330558.110577661], [294164.546799107, 4330528.110577661], [294164.546799107, 4330498.110577661], [294164.546799107, 4330468.110577661], [294164.546799107, 4330438.110577661], [294164.546799107, 4330408.110577661], [294194.546799107, 4330378.110577661], [294194.546799107, 4330348.110577661], [294194.546799107, 4330318.110577661], [294194.546799107, 4330288.110577661], [294194.546799107, 4330258.110577661], [294194.546799107, 4330228.110577661], [294194.546799107, 4330198.110577661], [294194.546799107, 4330168.110577661], [294224.546799107, 4330138.110577661], [294254.546799107, 4330108.110577661], [294254.546799107, 4330078.110577661], [294224.546799107, 4330048.110577661], [294224.546799107, 4330018.110577661], [294224.546799107, 4329988.110577661], [294194.546799107, 4329958.110577661], [294164.546799107, 4329928.110577661], [294134.546799107, 4329898.110577661], [294134.546799107, 4329868.110577661], [294164.546799107, 4329838.110577661], [294194.546799107, 4329808.110577661], [294194.546799107, 4329778.110577661], [294224.546799107, 4329748.110577661], [294224.546799107, 4329718.110577661], [294224.546799107, 4329688.110577661], [294224.546799107, 4329658.110577661], [294224.546799107, 4329628.110577661], [294224.546799107, 4329598.110577661], [294194.546799107, 4329568.110577661], [294194.546799107, 4329538.110577661], [294194.546799107, 4329508.110577661], [294194.546799107, 4329478.110577661], [294194.546799107, 4329448.110577661], [294194.546799107, 4329418.110577661], [294194.546799107, 4329388.110577661], [294224.546799107, 4329358.110577661], [294194.546799107, 4329328.110577661], [294194.546799107, 4329298.110577661], [294164.546799107, 4329268.110577661], [294134.546799107, 4329238.110577661], [294104.546799107, 4329208.110577661], [294074.546799107, 4329178.110577661], [294044.546799107, 4329148.110577661], [294014.546799107, 4329118.110577661], [293984.546799107, 4329088.110577661], [293954.546799107, 4329058.110577661], [293924.546799107, 4329028.110577661], [293894.546799107, 4328998.110577661], [293894.546799107, 4328968.110577661], [293864.546799107, 4328938.110577661], [293894.546799107, 4328908.110577661], [293894.546799107, 4328878.110577661], [293864.546799107, 4328848.110577661], [293834.546799107, 4328818.110577661], [293804.546799107, 4328788.110577661], [293774.546799107, 4328758.110577661], [293744.546799107, 4328728.110577661], [293714.546799107, 4328698.110577661], [293714.546799107, 4328668.110577661], [293744.546799107, 4328638.110577661], [293744.546799107, 4328608.110577661], [293714.546799107, 4328578.110577661], [293684.546799107, 4328578.110577661], [293654.546799107, 4328548.110577661], [293624.546799107, 4328518.110577661], [293594.546799107, 4328518.110577661], [293564.546799107, 4328488.110577661], [293534.546799107, 4328458.110577661], [293504.546799107, 4328428.110577661], [293474.546799107, 4328398.110577661], [293444.546799107, 4328368.110577661], [293414.546799107, 4328338.110577661], [293384.546799107, 4328308.110577661], [293354.546799107, 4328278.110577661], [293324.546799107, 4328248.110577661], [293294.546799107, 4328218.110577661], [293264.546799107, 4328188.110577661], [293234.546799107, 4328158.110577661], [293264.546799107, 4328128.110577661], [293294.546799107, 4328098.110577661], [293264.546799107, 4328068.110577661], [293264.546799107, 4328038.110577661], [293264.546799107, 4328008.110577661], [293264.546799107, 4327978.110577661], [293264.546799107, 4327948.110577661], [293264.546799107, 4327918.110577661], [293234.546799107, 4327888.110577661], [293264.546799107, 4327858.110577661], [293234.546799107, 4327828.110577661], [293234.546799107, 4327798.110577661], [293204.546799107, 4327768.110577661], [293174.546799107, 4327768.110577661], [293144.546799107, 4327798.110577661], [293114.546799107, 4327798.110577661], [293084.546799107, 4327798.110577661], [293054.546799107, 4327768.110577661], [293024.546799107, 4327738.110577661], [292994.546799107, 4327708.110577661], [292964.546799107, 4327678.110577661], [292934.546799107, 4327678.110577661], [292904.546799107, 4327678.110577661], [292874.546799107, 4327678.110577661], [292844.546799107, 4327648.110577661], [292814.546799107, 4327618.110577661], [292784.546799107, 4327588.110577661], [292754.546799107, 4327558.110577661], [292724.546799107, 4327528.110577661], [292694.546799107, 4327498.110577661], [292664.546799107, 4327468.110577661], [292634.546799107, 4327438.110577661], [292604.546799107, 4327408.110577661], [292574.546799107, 4327378.110577661], [292544.546799107, 4327348.110577661], [292544.546799107, 4327318.110577661], [292544.546799107, 4327288.110577661], [292514.546799107, 4327258.110577661], [292484.546799107, 4327258.110577661], [292454.546799107, 4327258.110577661], [292424.546799107, 4327258.110577661], [292394.546799107, 4327228.110577661], [292364.546799107, 4327198.110577661], [292334.546799107, 4327168.110577661], [292304.546799107, 4327138.110577661], [292274.546799107, 4327108.110577661], [292244.546799107, 4327078.110577661], [292214.546799107, 4327048.110577661], [292184.546799107, 4327018.110577661], [292184.546799107, 4326988.110577661], [292154.546799107, 4326958.110577661], [292124.546799107, 4326928.110577661], [292094.546799107, 4326898.110577661], [292064.546799107, 4326868.110577661], [292034.546799107, 4326838.110577661], [292004.546799107, 4326808.110577661], [291974.546799107, 4326778.110577661], [291944.546799107, 4326748.110577661], [291914.546799107, 4326718.110577661], [291884.546799107, 4326688.110577661], [291854.546799107, 4326658.110577661], [291824.546799107, 4326658.110577661], [291794.546799107, 4326688.110577661], [291764.546799107, 4326658.110577661], [291734.546799107, 4326628.110577661], [291704.546799107, 4326598.110577661], [291674.546799107, 4326568.110577661], [291644.546799107, 4326538.110577661], [291614.546799107, 4326538.110577661], [291584.546799107, 4326538.110577661], [291554.546799107, 4326508.110577661], [291524.546799107, 4326478.110577661], [291494.546799107, 4326478.110577661], [291464.546799107, 4326448.110577661], [291434.546799107, 4326418.110577661], [291404.546799107, 4326388.110577661], [291404.546799107, 4326358.110577661], [291404.546799107, 4326328.110577661], [291404.546799107, 4326298.110577661], [291374.546799107, 4326268.110577661], [291374.546799107, 4326238.110577661], [291374.546799107, 4326208.110577661], [291374.546799107, 4326178.110577661], [291374.546799107, 4326148.110577661], [291374.546799107, 4326118.110577661], [291374.546799107, 4326088.110577661], [291404.546799107, 4326058.110577661], [291434.546799107, 4326028.110577661], [291464.546799107, 4325998.110577661], [291494.546799107, 4325968.110577661], [291524.546799107, 4325938.110577661], [291554.546799107, 4325908.110577661], [291524.546799107, 4325878.110577661], [291494.546799107, 4325848.110577661], [291524.546799107, 4325818.110577661], [291554.546799107, 4325788.110577661], [291584.546799107, 4325758.110577661], [291554.546799107, 4325728.110577661], [291554.546799107, 4325698.110577661], [291524.546799107, 4325668.110577661], [291494.546799107, 4325638.110577661], [291464.546799107, 4325608.110577661], [291464.546799107, 4325578.110577661], [291434.546799107, 4325548.110577661], [291434.546799107, 4325518.110577661], [291404.546799107, 4325488.110577661], [291374.546799107, 4325488.110577661], [291344.546799107, 4325488.110577661], [291314.546799107, 4325488.110577661], [291284.546799107, 4325488.110577661], [291254.546799107, 4325518.110577661], [291224.546799107, 4325518.110577661], [291194.546799107, 4325548.110577661], [291164.546799107, 4325548.110577661], [291134.546799107, 4325518.110577661], [291104.546799107, 4325488.110577661], [291104.546799107, 4325458.110577661], [291104.546799107, 4325428.110577661], [291074.546799107, 4325398.110577661], [291044.546799107, 4325368.110577661], [291014.546799107, 4325338.110577661], [291014.546799107, 4325308.110577661], [291014.546799107, 4325278.110577661], [291014.546799107, 4325248.110577661], [290984.546799107, 4325218.110577661], [290954.546799107, 4325188.110577661], [290924.546799107, 4325218.110577661], [290894.546799107, 4325188.110577661], [290864.546799107, 4325158.110577661], [290834.546799107, 4325128.110577661], [290864.546799107, 4325098.110577661], [290864.546799107, 4325068.110577661], [290894.546799107, 4325038.110577661], [290924.546799107, 4325008.110577661], [290954.546799107, 4325008.110577661], [290984.546799107, 4324978.110577661], [291014.546799107, 4324948.110577661], [291044.546799107, 4324918.110577661], [291074.546799107, 4324888.110577661], [291104.546799107, 4324888.110577661]]}}]}