{"type": "FeatureCollection", "crs": {"type": "name", "properties": {"name": "EPSG:32642"}}, "features": [{"type": "Feature", "properties": {"name": "Ayakchi basin DEM footprint"}, "geometry": {"type": "Polygon", "coordinates": [[[314998.8232653204, 4366150.1429449385], [314998.8232653204, 4366090.1429449385], [314908.8232653204, 4366090.1429449385], [314908.8232653204, 4366060.1429449385], [314758.8232653204, 4366060.1429449385], [314758.8232653204, 4366090.1429449385], [314668.8232653204, 4366090.1429449385], [314668.8232653204, 4366060.1429449385], [314638.8232653204, 4366060.1429449385], [314638.8232653204, 4366090.1429449385], [314608.8232653204, 4366090.1429449385], [314608.8232653204, 4366060.1429449385], [314548.8232653204, 4366060.1429449385], [314548.8232653204, 4366030.1429449385], [314398.8232653204, 4366030.1429449385], [314398.8232653204, 4366000.1429449385], [314158.8232653204, 4366000.1429449385], [314158.8232653204, 4365970.1429449385], [314098.8232653204, 4365970.1429449385], [314098.8232653204, 4365940.1429449385], [314068.8232653204, 4365940.1429449385], [314068.8232653204, 4365910.1429449385], [313948.8232653204, 4365910.1429449385], [313948.8232653204, 4365880.1429449385], [313858.8232653204, 4365880.1429449385], [313858.8232653204, 4365850.1429449385], [313588.8232653204, 4365850.1429449385], [313588.8232653204, 4365790.1429449385], [313618.8232653204, 4365790.1429449385], [313618.8232653204, 4365730.1429449385], [313648.8232653204, 4365730.1429449385], [313648.8232653204, 4365640.1429449385], [313408.8232653204, 4365640.1429449385], [313408.8232653204, 4365580.1429449385], [313378.8232653204, 4365580.1429449385], [313378.8232653204, 4365550.1429449385], [313318.8232653204, 4365550.1429449385], [313318.8232653204, 4365490.1429449385], [313258.8232653204, 4365490.1429449385], [313258.8232653204, 4365460.1429449385], [313168.8232653204, 4365460.1429449385], [313168.8232653204, 4365430.1429449385], [313138.8232653204, 4365430.1429449385], [313138.8232653204, 4365400.1429449385], [313078.8232653204, 4365400.1429449385], [313078.8232653204, 4365310.1429449385], [313048.8232653204, 4365310.1429449385], [313048.8232653204, 4365280.1429449385], [313018.8232653204, 4365280.1429449385], [313018.8232653204, 4365160.1429449385], [313048.8232653204, 4365160.1429449385], [313048.8232653204, 4365130.1429449385], [313018.8232653204, 4365130.1429449385], [313018.8232653204, 4365100.1429449385], [313048.8232653204, 4365100.1429449385], [313048.8232653204, 4365010.1429449385], [313078.8232653204, 4365010.1429449385], [313078.8232653204, 4364950.1429449385], [313108.8232653204, 4364950.1429449385], [313108.8232653204, 4364920.1429449385], [313138.8232653204, 4364920.1429449385], [313138.8232653204, 4364770.1429449385], [313108.8232653204, 4364770.1429449385], [313108.8232653204, 4364650.1429449385], [313198.8232653204, 4364650.1429449385], [313198.8232653204, 4364620.1429449385], [313228.8232653204, 4364620.1429449385], [313228.8232653204, 4364560.1429449385], [313198.8232653204, 4364560.1429449385], [313198.8232653204, 4364530.1429449385], [313228.8232653204, 4364530.1429449385], [313228.8232653204, 4364470.1429449385], [313198.8232653204, 4364470.1429449385], [313198.8232653204, 4364200.1429449385], [313228.8232653204, 4364200.1429449385], [313228.8232653204, 4364140.1429449385], [313258.8232653204, 4364140.1429449385], [313258.8232653204, 4364050.1429449385], [313378.8232653204, 4364050.1429449385], [313378.8232653204, 4363960.1429449385], [313408.8232653204, 4363960.1429449385], [313408.8232653204, 4363930.1429449385], [313438.8232653204, 4363930.1429449385], [313438.8232653204, 4363900.1429449385], [313468.8232653204, 4363900.1429449385], [313468.8232653204, 4363870.1429449385], [313678.8232653204, 4363870.1429449385], [313678.8232653204, 4363840.1429449385], [313708.8232653204, 4363840.1429449385], [313708.8232653204, 4363780.1429449385], [313738.8232653204, 4363780.1429449385], [313738.8232653204, 4363690.1429449385], [313768.8232653204, 4363690.1429449385], [313768.8232653204, 4363660.1429449385], [313798.8232653204, 4363660.1429449385], [313798.8232653204, 4363600.1429449385], [313828.8232653204, 4363600.1429449385], [313828.8232653204, 4363420.1429449385], [313798.8232653204, 4363420.1429449385], [313798.8232653204, 4363390.1429449385], [313768.8232653204, 4363390.1429449385], [313768.8232653204, 4363300.1429449385], [313738.8232653204, 4363300.1429449385], [313738.8232653204, 4363270.1429449385], [313708.8232653204, 4363270.1429449385], [313708.8232653204, 4363120.1429449385], [313678.8232653204, 4363120.1429449385], [313678.8232653204, 4363060.1429449385], [313648.8232653204, 4363060.1429449385], [313648.8232653204, 4362910.1429449385], [313678.8232653204, 4362910.1429449385], [313678.8232653204, 4362790.1429449385], [313648.8232653204, 4362790.1429449385], [313648.8232653204, 4362760.1429449385], [313618.8232653204, 4362760.1429449385], [313618.8232653204, 4362670.1429449385], [313588.8232653204, 4362670.1429449385], [313588.8232653204, 4362610.1429449385], [313648.8232653204, 4362610.1429449385], [313648.8232653204, 4362580.1429449385], [313678.8232653204, 4362580.1429449385], [313678.8232653204, 4362460.1429449385], [313588.8232653204, 4362460.1429449385], [313588.8232653204, 4362400.1429449385], [313558.8232653204, 4362400.1429449385], [313558.8232653204, 4362340.1429449385], [313528.8232653204, 4362340.1429449385], [313528.8232653204, 4362280.1429449385], [313558.8232653204, 4362280.1429449385], [313558.8232653204, 4362250.1429449385], [313588.8232653204, 4362250.1429449385], [313588.8232653204, 4362220.1429449385], [313558.8232653204, 4362220.1429449385], [313558.8232653204, 4362100.1429449385], [313618.8232653204, 4362100.1429449385], [313618.8232653204, 4362040.1429449385], [313588.8232653204, 4362040.1429449385], [313588.8232653204, 4361950.1429449385], [313558.8232653204, 4361950.1429449385], [313558.8232653204, 4361890.1429449385], [313498.8232653204, 4361890.1429449385], [313498.8232653204, 4361860.1429449385], [313468.8232653204, 4361860.1429449385], [313468.8232653204, 4361770.1429449385], [313498.8232653204, 4361770.1429449385], [313498.8232653204, 4361680.1429449385], [313468.8232653204, 4361680.1429449385], [313468.8232653204, 4361620.1429449385], [313438.8232653204, 4361620.1429449385], [313438.8232653204, 4361530.1429449385], [313468.8232653204, 4361530.1429449385], [313468.8232653204, 4361500.1429449385], [313528.8232653204, 4361500.1429449385], [313528.8232653204, 4361440.1429449385], [313498.8232653204, 4361440.1429449385], [313498.8232653204, 4361380.1429449385], [313468.8232653204, 4361380.1429449385], [313468.8232653204, 4361230.1429449385], [313438.8232653204, 4361230.1429449385], [313438.8232653204, 4361140.1429449385], [313408.8232653204, 4361140.1429449385], [313408.8232653204, 4361080.1429449385], [313438.8232653204, 4361080.1429449385], [313438.8232653204, 4361050.1429449385], [313468.8232653204, 4361050.1429449385], [313468.8232653204, 4361020.1429449385], [313498.8232653204, 4361020.1429449385], [313498.8232653204, 4360930.1429449385], [313468.8232653204, 4360930.1429449385], [313468.8232653204, 4360870.1429449385], [313438.8232653204, 4360870.1429449385], [313438.8232653204, 4360840.1429449385], [313378.8232653204, 4360840.1429449385], [313378.8232653204, 4360780.1429449385], [313318.8232653204, 4360780.1429449385], [313318.8232653204, 4360750.1429449385], [313288.8232653204, 4360750.1429449385], [313288.8232653204, 4360720.1429449385], [313228.8232653204, 4360720.1429449385], [313228.8232653204, 4360690.1429449385], [313108.8232653204, 4360690.1429449385], [313108.8232653204, 4360660.1429449385], [313048.8232653204, 4360660.1429449385], [313048.8232653204, 4360600.1429449385], [312988.8232653204, 4360600.1429449385], [312988.8232653204, 4360510.1429449385], [312958.8232653204, 4360510.1429449385], [312958.8232653204, 4360450.1429449385], [312928.8232653204, 4360450.1429449385], [312928.8232653204, 4360420.1429449385], [312898.8232653204, 4360420.1429449385], [312898.8232653204, 4360390.1429449385], [312838.8232653204, 4360390.1429449385], [312838.8232653204, 4360360.1429449385], [312808.8232653204, 4360360.1429449385], [312808.8232653204, 4360300.1429449385], [312778.8232653204, 4360300.1429449385], [312778.8232653204, 4360210.1429449385], [312718.8232653204, 4360210.1429449385], [312718.8232653204, 4360090.1429449385], [312688.8232653204, 4360090.1429449385], [312688.8232653204, 4360060.1429449385], [312658.8232653204, 4360060.1429449385], [312658.8232653204, 4360030.1429449385], [312688.8232653204, 4360030.1429449385], [312688.8232653204, 4359940.1429449385], [312748.8232653204, 4359940.1429449385], [312748.8232653204, 4359910.1429449385], [312868.8232653204, 4359910.1429449385], [312868.8232653204, 4359850.1429449385], [312838.8232653204, 4359850.1429449385], [312838.8232653204, 4359820.1429449385], [312808.8232653204, 4359820.1429449385], [312808.8232653204, 4359790.1429449385], [312748.8232653204, 4359790.1429449385], [312748.8232653204, 4359760.1429449385], [312718.8232653204, 4359760.1429449385], [312718.8232653204, 4359700.1429449385], [312688.8232653204, 4359700.1429449385], [312688.8232653204, 4359610.1429449385], [312658.8232653204, 4359610.1429449385], [312658.8232653204, 4359520.1429449385], [312688.8232653204, 4359520.1429449385], [312688.8232653204, 4359400.1429449385], [312718.8232653204, 4359400.1429449385], [312718.8232653204, 4359370.1429449385], [312688.8232653204, 4359370.1429449385], [312688.8232653204, 4359310.1429449385], [312658.8232653204, 4359310.1429449385], [312658.8232653204, 4359250.1429449385], [312598.8232653204, 4359250.1429449385], [312598.8232653204, 4359190.1429449385], [312568.8232653204, 4359190.1429449385], [312568.8232653204, 4359070.1429449385], [312538.8232653204, 4359070.1429449385], [312538.8232653204, 4359040.1429449385], [312448.8232653204, 4359040.1429449385], [312448.8232653204, 4359010.1429449385], [312478.8232653204, 4359010.1429449385], [312478.8232653204, 4358950.1429449385], [312418.8232653204, 4358950.1429449385], [312418.8232653204, 4358920.1429449385], [312388.8232653204, 4358920.1429449385], [312388.8232653204, 4358890.1429449385], [312358.8232653204, 4358890.1429449385], [312358.8232653204, 4358860.1429449385], [312328.8232653204, 4358860.1429449385], [312328.8232653204, 4358890.1429449385], [312268.8232653204, 4358890.1429449385], [312268.8232653204, 4358830.1429449385], [312208.8232653204, 4358830.1429449385], [312208.8232653204, 4358770.1429449385], [312148.8232653204, 4358770.1429449385], [312148.8232653204, 4358710.1429449385], [312058.8232653204, 4358710.1429449385], [312058.8232653204, 4358680.1429449385], [312028.8232653204, 4358680.1429449385], [312028.8232653204, 4358620.1429449385], [311938.8232653204, 4358620.1429449385], [311938.8232653204, 4358590.1429449385], [311908.8232653204, 4358590.1429449385], [311908.8232653204, 4358500.1429449385], [311818.8232653204, 4358500.1429449385], [311818.8232653204, 4358470.1429449385], [311788.8232653204, 4358470.1429449385], [311788.8232653204, 4358440.1429449385], [311758.8232653204, 4358440.1429449385], [311758.8232653204, 4358380.1429449385], [311728.8232653204, 4358380.1429449385], [311728.8232653204, 4358350.1429449385], [311698.8232653204, 4358350.1429449385], [311698.8232653204, 4358260.1429449385], [311668.8232653204, 4358260.1429449385], [311668.8232653204, 4358200.1429449385], [311548.8232653204, 4358200.1429449385], [311548.8232653204, 4358140.1429449385], [311488.8232653204, 4358140.1429449385], [311488.8232653204, 4358050.1429449385], [311398.8232653204, 4358050.1429449385], [311398.8232653204, 4358020.1429449385], [311368.8232653204, 4358020.1429449385], [311368.8232653204, 4357960.1429449385], [311308.8232653204, 4357960.1429449385], [311308.8232653204, 4357900.1429449385], [311338.8232653204, 4357900.1429449385], [311338.8232653204, 4357840.1429449385], [311308.8232653204, 4357840.1429449385], [311308.8232653204, 4357810.1429449385], [311278.8232653204, 4357810.1429449385], [311278.8232653204, 4357750.1429449385], [311248.8232653204, 4357750.1429449385], [311248.8232653204, 4357690.1429449385], [311278.8232653204, 4357690.1429449385], [311278.8232653204, 4357570.1429449385], [311248.8232653204, 4357570.1429449385], [311248.8232653204, 4357540.1429449385], [311188.8232653204, 4357540.1429449385], [311188.8232653204, 4357390.1429449385], [311218.8232653204, 4357390.1429449385], [311218.8232653204, 4357330.1429449385], [311158.8232653204, 4357330.1429449385], [311158.8232653204, 4357240.1429449385], [311128.8232653204, 4357240.1429449385], [311128.8232653204, 4357180.1429449385], [311098.8232653204, 4357180.1429449385], [311098.8232653204, 4357090.1429449385], [311068.8232653204, 4357090.1429449385], [311068.8232653204, 4357060.1429449385], [311038.8232653204, 4357060.1429449385], [311038.8232653204, 4357090.1429449385], [310978.8232653204, 4357090.1429449385], [310978.8232653204, 4357030.1429449385], [310948.8232653204, 4357030.1429449385], [310948.8232653204, 4356940.1429449385], [310918.8232653204, 4356940.1429449385], [310918.8232653204, 4356880.1429449385], [310828.8232653204, 4356880.1429449385], [310828.8232653204, 4356820.1429449385], [310768.8232653204, 4356820.1429449385], [310768.8232653204, 4356790.1429449385], [310738.8232653204, 4356790.1429449385], [310738.8232653204, 4356670.1429449385], [310708.8232653204, 4356670.1429449385], [310708.8232653204, 4356640.1429449385], [310648.8232653204, 4356640.1429449385], [310648.8232653204, 4356610.1429449385], [310558.8232653204, 4356610.1429449385], [310558.8232653204, 4356550.1429449385], [310528.8232653204, 4356550.1429449385], [310528.8232653204, 4356520.1429449385], [310378.8232653204, 4356520.1429449385], [310378.8232653204, 4356490.1429449385], [310348.8232653204, 4356490.1429449385], [310348.8232653204, 4356430.1429449385], [310318.8232653204, 4356430.1429449385], [310318.8232653204, 4356370.1429449385], [310258.8232653204, 4356370.1429449385], [310258.8232653204, 4356340.1429449385], [310198.8232653204, 4356340.1429449385], [310198.8232653204, 4356310.1429449385], [310078.8232653204, 4356310.1429449385], [310078.8232653204, 4356220.1429449385], [310048.8232653204, 4356220.1429449385], [310048.8232653204, 4356190.1429449385], [310018.8232653204, 4356190.1429449385], [310018.8232653204, 4356160.1429449385], [309988.8232653204, 4356160.1429449385], [309988.8232653204, 4356130.1429449385], [309958.8232653204, 4356130.1429449385], [309958.8232653204, 4356100.1429449385], [309928.8232653204, 4356100.1429449385], [309928.8232653204, 4355950.1429449385], [309898.8232653204, 4355950.1429449385], [309898.8232653204, 4355890.1429449385], [309868.8232653204, 4355890.1429449385], [309868.8232653204, 4355800.1429449385], [309838.8232653204, 4355800.1429449385], [309838.8232653204, 4355770.1429449385], [309808.8232653204, 4355770.1429449385], [309808.8232653204, 4355740.1429449385], [309778.8232653204, 4355740.1429449385], [309778.8232653204, 4355620.1429449385], [309568.8232653204, 4355620.1429449385], [309568.8232653204, 4355590.1429449385], [309538.8232653204, 4355590.1429449385], [309538.8232653204, 4355530.1429449385], [309508.8232653204, 4355530.1429449385], [309508.8232653204, 4355410.1429449385], [309478.8232653204, 4355410.1429449385], [309478.8232653204, 4355380.1429449385], [309418.8232653204, 4355380.1429449385], [309418.8232653204, 4355260.1429449385], [309448.8232653204, 4355260.1429449385], [309448.8232653204, 4355170.1429449385], [309418.8232653204, 4355170.1429449385], [309418.8232653204, 4355140.1429449385], [309448.8232653204, 4355140.1429449385], [309448.8232653204, 4354870.1429449385], [309418.8232653204, 4354870.1429449385], [309418.8232653204, 4354720.1429449385], [309328.8232653204, 4354720.1429449385], [309328.8232653204, 4354690.1429449385], [309298.8232653204, 4354690.1429449385], [309298.8232653204, 4354420.1429449385], [309328.8232653204, 4354420.1429449385], [309328.8232653204, 4354330.1429449385], [309298.8232653204, 4354330.1429449385], [309298.8232653204, 4354270.1429449385], [309268.8232653204, 4354270.1429449385], [309268.8232653204, 4354210.1429449385], [309208.8232653204, 4354210.1429449385], [309208.8232653204, 4354180.1429449385], [309178.8232653204, 4354180.1429449385], [309178.8232653204, 4354120.1429449385], [309148.8232653204, 4354120.1429449385], [309148.8232653204, 4354060.1429449385], [309118.8232653204, 4354060.1429449385], [309118.8232653204, 4354030.1429449385], [309148.8232653204, 4354030.1429449385], [309148.8232653204, 4353970.1429449385], [309118.8232653204, 4353970.1429449385], [309118.8232653204, 4353940.1429449385], [309088.8232653204, 4353940.1429449385], [309088.8232653204, 4353910.1429449385], [309028.8232653204, 4353910.1429449385], [309028.8232653204, 4353850.1429449385], [308998.8232653204, 4353850.1429449385], [308998.8232653204, 4353730.1429449385], [309028.8232653204, 4353730.1429449385], [309028.8232653204, 4353700.1429449385], [309058.8232653204, 4353700.1429449385], [309058.8232653204, 4353640.1429449385], [309028.8232653204, 4353640.1429449385], [309028.8232653204, 4353610.1429449385], [308998.8232653204, 4353610.1429449385], [308998.8232653204, 4353520.1429449385], [308938.8232653204, 4353520.1429449385], [308938.8232653204, 4353430.1429449385], [308908.8232653204, 4353430.1429449385], [308908.8232653204, 4353340.1429449385], [308938.8232653204, 4353340.1429449385], [308938.8232653204, 4353250.1429449385], [308908.8232653204, 4353250.1429449385], [308908.8232653204, 4353220.1429449385], [308998.8232653204, 4353220.1429449385], [308998.8232653204, 4353160.1429449385], [309028.8232653204, 4353160.1429449385], [309028.8232653204, 4353100.1429449385], [309058.8232653204, 4353100.1429449385], [309058.8232653204, 4353040.1429449385], [309088.8232653204, 4353040.1429449385], [309088.8232653204, 4352950.1429449385], [309118.8232653204, 4352950.1429449385], [309118.8232653204, 4352920.1429449385], [309148.8232653204, 4352920.1429449385], [309148.8232653204, 4352890.1429449385], [309178.8232653204, 4352890.1429449385], [309178.8232653204, 4352830.1429449385], [309208.8232653204, 4352830.1429449385], [309208.8232653204, 4352800.1429449385], [309238.8232653204, 4352800.1429449385], [309238.8232653204, 4352770.1429449385], [309268.8232653204, 4352770.1429449385], [309268.8232653204, 4352740.1429449385], [309238.8232653204, 4352740.1429449385], [309238.8232653204, 4352650.1429449385], [309208.8232653204, 4352650.1429449385], [309208.8232653204, 4352620.1429449385], [309178.8232653204, 4352620.1429449385], [309178.8232653204, 4352500.1429449385], [309118.8232653204, 4352500.1429449385], [309118.8232653204, 4352470.1429449385], [309088.8232653204, 4352470.1429449385], [309088.8232653204, 4352440.1429449385], [309118.8232653204, 4352440.1429449385], [309118.8232653204, 4352380.1429449385], [309058.8232653204, 4352380.1429449385], [309058.8232653204, 4352320.1429449385], [309028.8232653204, 4352320.1429449385], [309028.8232653204, 4352170.1429449385], [309058.8232653204, 4352170.1429449385], [309058.8232653204, 4352110.1429449385], [308998.8232653204, 4352110.1429449385], [308998.8232653204, 4351990.1429449385], [309028.8232653204, 4351990.1429449385], [309028.8232653204, 4351960.1429449385], [309058.8232653204, 4351960.1429449385], [309058.8232653204, 4351840.1429449385], [309118.8232653204, 4351840.1429449385], [309118.8232653204, 4351780.1429449385], [309148.8232653204, 4351780.1429449385], [309148.8232653204, 4351600.1429449385], [309178.8232653204, 4351600.1429449385], [309178.8232653204, 4351540.1429449385], [309208.8232653204, 4351540.1429449385], [309208.8232653204, 4351510.1429449385], [309268.8232653204, 4351510.1429449385], [309268.8232653204, 4351450.1429449385], [309328.8232653204, 4351450.1429449385], [309328.8232653204, 4351420.1429449385], [309358.8232653204, 4351420.1429449385], [309358.8232653204, 4351390.1429449385], [309388.8232653204, 4351390.1429449385], [309388.8232653204, 4351360.1429449385], [309418.8232653204, 4351360.1429449385], [309418.8232653204, 4351330.1429449385], [309478.8232653204, 4351330.1429449385], [309478.8232653204, 4351210.1429449385], [309508.8232653204, 4351210.1429449385], [309508.8232653204, 4351000.1429449385], [309568.8232653204, 4351000.1429449385], [309568.8232653204, 4350970.1429449385], [309718.8232653204, 4350970.1429449385], [309718.8232653204, 4350910.1429449385], [309778.8232653204, 4350910.1429449385], [309778.8232653204, 4350880.1429449385], [309838.8232653204, 4350880.1429449385], [309838.8232653204, 4350850.1429449385], [309868.8232653204, 4350850.1429449385], [309868.8232653204, 4350820.1429449385], [309958.8232653204, 4350820.1429449385], [309958.8232653204, 4350760.1429449385], [310018.8232653204, 4350760.1429449385], [310018.8232653204, 4350730.1429449385], [309988.8232653204, 4350730.1429449385], [309988.8232653204, 4350700.1429449385], [310018.8232653204, 4350700.1429449385], [310018.8232653204, 4350670.1429449385], [310078.8232653204, 4350670.1429449385], [310078.8232653204, 4350640.1429449385], [310168.8232653204, 4350640.1429449385], [310168.8232653204, 4350580.1429449385], [310228.8232653204, 4350580.1429449385], [310228.8232653204, 4350550.1429449385], [310318.8232653204, 4350550.1429449385], [310318.8232653204, 4350580.1429449385], [310408.8232653204, 4350580.1429449385], [310408.8232653204, 4350610.1429449385], [310498.8232653204, 4350610.1429449385], [310498.8232653204, 4350640.1429449385], [310588.8232653204, 4350640.1429449385], [310588.8232653204, 4350670.1429449385], [310618.8232653204, 4350670.1429449385], [310618.8232653204, 4350700.1429449385], [310738.8232653204, 4350700.1429449385], [310738.8232653204, 4350670.1429449385], [310768.8232653204, 4350670.1429449385], [310768.8232653204, 4350700.1429449385], [310858.8232653204, 4350700.1429449385], [310858.8232653204, 4350730.1429449385], [310948.8232653204, 4350730.1429449385], [310948.8232653204, 4350700.1429449385], [311038.8232653204, 4350700.1429449385], [311038.8232653204, 4350730.1429449385], [311128.8232653204, 4350730.1429449385], [311128.8232653204, 4350760.1429449385], [311188.8232653204, 4350760.1429449385], [311188.8232653204, 4350790.1429449385], [311338.8232653204, 4350790.1429449385], [311338.8232653204, 4350850.1429449385], [311458.8232653204, 4350850.1429449385], [311458.8232653204, 4350880.1429449385], [311548.8232653204, 4350880.1429449385], [311548.8232653204, 4350910.1429449385], [311578.8232653204, 4350910.1429449385], [311578.8232653204, 4350940.1429449385], [311788.8232653204, 4350940.1429449385], [311788.8232653204, 4350910.1429449385], [311818.8232653204, 4350910.1429449385], [311818.8232653204, 4350940.1429449385], [311878.8232653204, 4350940.1429449385], [311878.8232653204, 4350970.1429449385], [311938.8232653204, 4350970.1429449385], [311938.8232653204, 4351060.1429449385], [311968.8232653204, 4351060.1429449385], [311968.8232653204, 4351210.1429449385], [312028.8232653204, 4351210.1429449385], [312028.8232653204, 4351270.1429449385], [312058.8232653204, 4351270.1429449385], [312058.8232653204, 4351300.1429449385], [312088.8232653204, 4351300.1429449385], [312088.8232653204, 4351330.1429449385], [312118.8232653204, 4351330.1429449385], [312118.8232653204, 4351360.1429449385], [312148.8232653204, 4351360.1429449385], [312148.8232653204, 4351330.1429449385], [312238.8232653204, 4351330.1429449385], [312238.8232653204, 4351360.1429449385], [312268.8232653204, 4351360.1429449385], [312268.8232653204, 4351390.1429449385], [312298.8232653204, 4351390.1429449385], [312298.8232653204, 4351420.1429449385], [312328.8232653204, 4351420.1429449385], [312328.8232653204, 4351450.1429449385], [312358.8232653204, 4351450.1429449385], [312358.8232653204, 4351480.1429449385], [312388.8232653204, 4351480.1429449385], [312388.8232653204, 4351450.1429449385], [312418.8232653204, 4351450.1429449385], [312418.8232653204, 4351420.1429449385], [312448.8232653204, 4351420.1429449385], [312448.8232653204, 4351450.1429449385], [312478.8232653204, 4351450.1429449385], [312478.8232653204, 4351630.1429449385], [312508.8232653204, 4351630.1429449385], [312508.8232653204, 4351660.1429449385], [312718.8232653204, 4351660.1429449385], [312718.8232653204, 4351690.1429449385], [312838.8232653204, 4351690.1429449385], [312838.8232653204, 4351720.1429449385], [312868.8232653204, 4351720.1429449385], [312868.8232653204, 4351840.1429449385], [312928.8232653204, 4351840.1429449385], [312928.8232653204, 4351960.1429449385], [312988.8232653204, 4351960.1429449385], [312988.8232653204, 4351990.1429449385], [313018.8232653204, 4351990.1429449385], [313018.8232653204, 4352110.1429449385], [313048.8232653204, 4352110.1429449385], [313048.8232653204, 4352140.1429449385], [313108.8232653204, 4352140.1429449385], [313108.8232653204, 4352170.1429449385], [313198.8232653204, 4352170.1429449385], [313198.8232653204, 4352200.1429449385], [313258.8232653204, 4352200.1429449385], [313258.8232653204, 4352230.1429449385], [313348.8232653204, 4352230.1429449385], [313348.8232653204, 4352200.1429449385], [313408.8232653204, 4352200.1429449385], [313408.8232653204, 4352170.1429449385], [313468.8232653204, 4352170.1429449385], [313468.8232653204, 4352020.1429449385], [313588.8232653204, 4352020.1429449385], [313588.8232653204, 4351990.1429449385], [313618.8232653204, 4351990.1429449385], [313618.8232653204, 4351960.1429449385], [313648.8232653204, 4351960.1429449385], [313648.8232653204, 4351930.1429449385], [313708.8232653204, 4351930.1429449385], [313708.8232653204, 4351900.1429449385], [313798.8232653204, 4351900.1429449385], [313798.8232653204, 4351720.1429449385], [313858.8232653204, 4351720.1429449385], [313858.8232653204, 4351630.1429449385], [313918.8232653204, 4351630.1429449385], [313918.8232653204, 4351600.1429449385], [313978.8232653204, 4351600.1429449385], [313978.8232653204, 4351510.1429449385], [314008.8232653204, 4351510.1429449385], [314008.8232653204, 4351450.1429449385], [314038.8232653204, 4351450.1429449385], [314038.8232653204, 4351390.1429449385], [314068.8232653204, 4351390.1429449385], [314068.8232653204, 4351300.1429449385], [314158.8232653204, 4351300.1429449385], [314158.8232653204, 4351270.1429449385], [314188.8232653204, 4351270.1429449385], [314188.8232653204, 4351240.1429449385], [314248.8232653204, 4351240.1429449385], [314248.8232653204, 4351150.1429449385], [314218.8232653204, 4351150.1429449385], [314218.8232653204, 4351090.1429449385], [314188.8232653204, 4351090.1429449385], [314188.8232653204, 4351030.1429449385], [314158.8232653204, 4351030.1429449385], [314158.8232653204, 4351000.1429449385], [314128.8232653204, 4351000.1429449385], [314128.8232653204, 4350970.1429449385], [314158.8232653204, 4350970.1429449385], [314158.8232653204, 4350850.1429449385], [314188.8232653204, 4350850.1429449385], [314188.8232653204, 4350820.1429449385], [314338.8232653204, 4350820.1429449385], [314338.8232653204, 4350730.1429449385], [314308.8232653204, 4350730.1429449385], [314308.8232653204, 4350670.1429449385], [314338.8232653204, 4350670.1429449385], [314338.8232653204, 4350640.1429449385], [314488.8232653204, 4350640.1429449385], [314488.8232653204, 4350700.1429449385], [314548.8232653204, 4350700.1429449385], [314548.8232653204, 4350670.1429449385], [314578.8232653204, 4350670.1429449385], [314578.8232653204, 4350640.1429449385], [314638.8232653204, 4350640.1429449385], [314638.8232653204, 4350610.1429449385], [314728.8232653204, 4350610.1429449385], [314728.8232653204, 4350670.1429449385], [314758.8232653204, 4350670.1429449385], [314758.8232653204, 4350640.1429449385], [314848.8232653204, 4350640.1429449385], [314848.8232653204, 4350610.1429449385], [314938.8232653204, 4350610.1429449385], [314938.8232653204, 4350640.1429449385], [315058.8232653204, 4350640.1429449385], [315058.8232653204, 4350670.1429449385], [315118.8232653204, 4350670.1429449385], [315118.8232653204, 4350700.1429449385], [315148.8232653204, 4350700.1429449385], [315148.8232653204, 4350730.1429449385], [315178.8232653204, 4350730.1429449385], [315178.8232653204, 4350760.1429449385], [315238.8232653204, 4350760.1429449385], [315238.8232653204, 4350790.1429449385], [315268.8232653204, 4350790.1429449385], [315268.8232653204, 4350760.1429449385], [315298.8232653204, 4350760.1429449385], [315298.8232653204, 4350790.1429449385], [315358.8232653204, 4350790.1429449385], [315358.8232653204, 4350730.1429449385], [315388.8232653204, 4350730.1429449385], [315388.8232653204, 4350640.1429449385], [315418.8232653204, 4350640.1429449385], [315418.8232653204, 4350610.1429449385], [315538.8232653204, 4350610.1429449385], [315538.8232653204, 4350580.1429449385], [315598.8232653204, 4350580.1429449385], [315598.8232653204, 4350490.1429449385], [315658.8232653204, 4350490.1429449385], [315658.8232653204, 4350460.1429449385], [315748.8232653204, 4350460.1429449385], [315748.8232653204, 4350490.1429449385], [315808.8232653204, 4350490.1429449385], [315808.8232653204, 4350400.1429449385], [315868.8232653204, 4350400.1429449385], [315868.8232653204, 4350370.1429449385], [315988.8232653204, 4350370.1429449385], [315988.8232653204, 4350400.1429449385], [316138.8232653204, 4350400.1429449385], [316138.8232653204, 4350370.1429449385], [316168.8232653204, 4350370.1429449385], [316168.8232653204, 4350520.1429449385], [316198.8232653204, 4350520.1429449385], [316198.8232653204, 4350550.1429449385], [316228.8232653204, 4350550.1429449385], [316228.8232653204, 4350580.1429449385], [316378.8232653204, 4350580.1429449385], [316378.8232653204, 4350550.1429449385], [316618.8232653204, 4350550.1429449385], [316618.8232653204, 4350580.1429449385], [316648.8232653204, 4350580.1429449385], [316648.8232653204, 4350640.1429449385], [316678.8232653204, 4350640.1429449385], [316678.8232653204, 4350730.1429449385], [316708.8232653204, 4350730.1429449385], [316708.8232653204, 4350700.1429449385], [316828.8232653204, 4350700.1429449385], [316828.8232653204, 4350730.1429449385], [316858.8232653204, 4350730.1429449385], [316858.8232653204, 4350820.1429449385], [316828.8232653204, 4350820.1429449385], [316828.8232653204, 4350850.1429449385], [316798.8232653204, 4350850.1429449385], [316798.8232653204, 4350880.1429449385], [316768.8232653204, 4350880.1429449385], [316768.8232653204, 4351090.1429449385], [316798.8232653204, 4351090.1429449385], [316798.8232653204, 4351150.1429449385], [316828.8232653204, 4351150.1429449385], [316828.8232653204, 4351180.1429449385], [316798.8232653204, 4351180.1429449385], [316798.8232653204, 4351210.1429449385], [316768.8232653204, 4351210.1429449385], [316768.8232653204, 4351270.1429449385], [316798.8232653204, 4351270.1429449385], [316798.8232653204, 4351360.1429449385], [316828.8232653204, 4351360.1429449385], [316828.8232653204, 4351510.1429449385], [316798.8232653204, 4351510.1429449385], [316798.8232653204, 4351600.1429449385], [316828.8232653204, 4351600.1429449385], [316828.8232653204, 4351630.1429449385], [316858.8232653204, 4351630.1429449385], [316858.8232653204, 4351690.1429449385], [316918.8232653204, 4351690.1429449385], [316918.8232653204, 4351780.1429449385], [316948.8232653204, 4351780.1429449385], [316948.8232653204, 4351840.1429449385], [317008.8232653204, 4351840.1429449385], [317008.8232653204, 4351900.1429449385], [317038.8232653204, 4351900.1429449385], [317038.8232653204, 4351990.1429449385], [317008.8232653204, 4351990.1429449385], [317008.8232653204, 4352020.1429449385], [317068.8232653204, 4352020.1429449385], [317068.8232653204, 4352050.1429449385], [317038.8232653204, 4352050.1429449385], [317038.8232653204, 4352380.1429449385], [317068.8232653204, 4352380.1429449385], [317068.8232653204, 4352470.1429449385], [317098.8232653204, 4352470.1429449385], [317098.8232653204, 4352560.1429449385], [317068.8232653204, 4352560.1429449385], [317068.8232653204, 4352590.1429449385], [317038.8232653204, 4352590.1429449385], [317038.8232653204, 4352710.1429449385], [317068.8232653204, 4352710.1429449385], [317068.8232653204, 4352740.1429449385], [317098.8232653204, 4352740.1429449385], [317098.8232653204, 4352830.1429449385], [317128.8232653204, 4352830.1429449385], [317128.8232653204, 4352980.1429449385], [317158.8232653204, 4352980.1429449385], [317158.8232653204, 4353010.1429449385], [317188.8232653204, 4353010.1429449385], [317188.8232653204, 4353040.1429449385], [317158.8232653204, 4353040.1429449385], [317158.8232653204, 4353130.1429449385], [317218.8232653204, 4353130.1429449385], [317218.8232653204, 4353160.1429449385], [317188.8232653204, 4353160.1429449385], [317188.8232653204, 4353220.1429449385], [317158.8232653204, 4353220.1429449385], [317158.8232653204, 4353310.1429449385], [317098.8232653204, 4353310.1429449385], [317098.8232653204, 4353340.1429449385], [317038.8232653204, 4353340.1429449385], [317038.8232653204, 4353370.1429449385], [317008.8232653204, 4353370.1429449385], [317008.8232653204, 4353400.1429449385], [316888.8232653204, 4353400.1429449385], [316888.8232653204, 4353430.1429449385], [316858.8232653204, 4353430.1429449385], [316858.8232653204, 4353460.1429449385], [316828.8232653204, 4353460.1429449385], [316828.8232653204, 4353490.1429449385], [316768.8232653204, 4353490.1429449385], [316768.8232653204, 4353520.1429449385], [316708.8232653204, 4353520.1429449385], [316708.8232653204, 4353550.1429449385], [316588.8232653204, 4353550.1429449385], [316588.8232653204, 4353490.1429449385], [316498.8232653204, 4353490.1429449385], [316498.8232653204, 4353520.1429449385], [316408.8232653204, 4353520.1429449385], [316408.8232653204, 4353550.1429449385], [316288.8232653204, 4353550.1429449385], [316288.8232653204, 4353580.1429449385], [316228.8232653204, 4353580.1429449385], [316228.8232653204, 4353640.1429449385], [316198.8232653204, 4353640.1429449385], [316198.8232653204, 4353670.1429449385], [316228.8232653204, 4353670.1429449385], [316228.8232653204, 4353790.1429449385], [316198.8232653204, 4353790.1429449385], [316198.8232653204, 4353820.1429449385], [316168.8232653204, 4353820.1429449385], [316168.8232653204, 4353910.1429449385], [316198.8232653204, 4353910.1429449385], [316198.8232653204, 4353940.1429449385], [316228.8232653204, 4353940.1429449385], [316228.8232653204, 4354060.1429449385], [316258.8232653204, 4354060.1429449385], [316258.8232653204, 4354120.1429449385], [316288.8232653204, 4354120.1429449385], [316288.8232653204, 4354180.1429449385], [316318.8232653204, 4354180.1429449385], [316318.8232653204, 4354210.1429449385], [316408.8232653204, 4354210.1429449385], [316408.8232653204, 4354240.1429449385], [316438.8232653204, 4354240.1429449385], [316438.8232653204, 4354270.1429449385], [316528.8232653204, 4354270.1429449385], [316528.8232653204, 4354300.1429449385], [316588.8232653204, 4354300.1429449385], [316588.8232653204, 4354330.1429449385], [316618.8232653204, 4354330.1429449385], [316618.8232653204, 4354360.1429449385], [316648.8232653204, 4354360.1429449385], [316648.8232653204, 4354420.1429449385], [316708.8232653204, 4354420.1429449385], [316708.8232653204, 4354450.1429449385], [316738.8232653204, 4354450.1429449385], [316738.8232653204, 4354480.1429449385], [316768.8232653204, 4354480.1429449385], [316768.8232653204, 4354570.1429449385], [316798.8232653204, 4354570.1429449385], [316798.8232653204, 4354630.1429449385], [316828.8232653204, 4354630.1429449385], [316828.8232653204, 4354660.1429449385], [316918.8232653204, 4354660.1429449385], [316918.8232653204, 4354750.1429449385], [316948.8232653204, 4354750.1429449385], [316948.8232653204, 4354870.1429449385], [316978.8232653204, 4354870.1429449385], [316978.8232653204, 4354900.1429449385], [317008.8232653204, 4354900.1429449385], [317008.8232653204, 4354870.1429449385], [317038.8232653204, 4354870.1429449385], [317038.8232653204, 4354960.1429449385], [317068.8232653204, 4354960.1429449385], [317068.8232653204, 4355020.1429449385], [317098.8232653204, 4355020.1429449385], [317098.8232653204, 4355080.1429449385], [317128.8232653204, 4355080.1429449385], [317128.8232653204, 4355140.1429449385], [317158.8232653204, 4355140.1429449385], [317158.8232653204, 4355200.1429449385], [317218.8232653204, 4355200.1429449385], [317218.8232653204, 4355290.1429449385], [317278.8232653204, 4355290.1429449385], [317278.8232653204, 4355410.1429449385], [317398.8232653204, 4355410.1429449385], [317398.8232653204, 4355500.1429449385], [317368.8232653204, 4355500.1429449385], [317368.8232653204, 4355590.1429449385], [317428.8232653204, 4355590.1429449385], [317428.8232653204, 4355620.1429449385], [317458.8232653204, 4355620.1429449385], [317458.8232653204, 4355650.1429449385], [317518.8232653204, 4355650.1429449385], [317518.8232653204, 4355680.1429449385], [317728.8232653204, 4355680.1429449385], [317728.8232653204, 4355740.1429449385], [317698.8232653204, 4355740.1429449385], [317698.8232653204, 4355770.1429449385], [317758.8232653204, 4355770.1429449385], [317758.8232653204, 4355830.1429449385], [317788.8232653204, 4355830.1429449385], [317788.8232653204, 4355890.1429449385], [317818.8232653204, 4355890.1429449385], [317818.8232653204, 4355950.1429449385], [317848.8232653204, 4355950.1429449385], [317848.8232653204, 4355980.1429449385], [317908.8232653204, 4355980.1429449385], [317908.8232653204, 4356010.1429449385], [318028.8232653204, 4356010.1429449385], [318028.8232653204, 4356100.1429449385], [318148.8232653204, 4356100.1429449385], [318148.8232653204, 4356190.1429449385], [318238.8232653204, 4356190.1429449385], [318238.8232653204, 4356280.1429449385], [318268.8232653204, 4356280.1429449385], [318268.8232653204, 4356340.1429449385], [318298.8232653204, 4356340.1429449385], [318298.8232653204, 4356430.1429449385], [318268.8232653204, 4356430.1429449385], [318268.8232653204, 4356460.1429449385], [318238.8232653204, 4356460.1429449385], [318238.8232653204, 4356520.1429449385], [318208.8232653204, 4356520.1429449385], [318208.8232653204, 4356640.1429449385], [318268.8232653204, 4356640.1429449385], [318268.8232653204, 4356670.1429449385], [318298.8232653204, 4356670.1429449385], [318298.8232653204, 4356760.1429449385], [318358.8232653204, 4356760.1429449385], [318358.8232653204, 4356910.1429449385], [318388.8232653204, 4356910.1429449385], [318388.8232653204, 4357060.1429449385], [318508.8232653204, 4357060.1429449385], [318508.8232653204, 4357090.1429449385], [318568.8232653204, 4357090.1429449385], [318568.8232653204, 4357120.1429449385], [318538.8232653204, 4357120.1429449385], [318538.8232653204, 4357240.1429449385], [318568.8232653204, 4357240.1429449385], [318568.8232653204, 4357270.1429449385], [318628.8232653204, 4357270.1429449385], [318628.8232653204, 4357330.1429449385], [318658.8232653204, 4357330.1429449385], [318658.8232653204, 4357420.1429449385], [318688.8232653204, 4357420.1429449385], [318688.8232653204, 4357510.1429449385], [318718.8232653204, 4357510.1429449385], [318718.8232653204, 4357600.1429449385], [318778.8232653204, 4357600.1429449385], [318778.8232653204, 4357690.1429449385], [318688.8232653204, 4357690.1429449385], [318688.8232653204, 4357720.1429449385], [318658.8232653204, 4357720.1429449385], [318658.8232653204, 4357810.1429449385], [318598.8232653204, 4357810.1429449385], [318598.8232653204, 4357840.1429449385], [318508.8232653204, 4357840.1429449385], [318508.8232653204, 4357870.1429449385], [318478.8232653204, 4357870.1429449385], [318478.8232653204, 4357930.1429449385], [318448.8232653204, 4357930.1429449385], [318448.8232653204, 4357960.1429449385], [318478.8232653204, 4357960.1429449385], [318478.8232653204, 4358080.1429449385], [318508.8232653204, 4358080.1429449385], [318508.8232653204, 4358140.1429449385], [318478.8232653204, 4358140.1429449385], [318478.8232653204, 4358170.1429449385], [318448.8232653204, 4358170.1429449385], [318448.8232653204, 4358200.1429449385], [318358.8232653204, 4358200.1429449385], [318358.8232653204, 4358230.1429449385], [318328.8232653204, 4358230.1429449385], [318328.8232653204, 4358260.1429449385], [318268.8232653204, 4358260.1429449385], [318268.8232653204, 4358230.1429449385], [318238.8232653204, 4358230.1429449385], [318238.8232653204, 4358260.1429449385], [318208.8232653204, 4358260.1429449385], [318208.8232653204, 4358290.1429449385], [318178.8232653204, 4358290.1429449385], [318178.8232653204, 4358350.1429449385], [318028.8232653204, 4358350.1429449385], [318028.8232653204, 4358380.1429449385], [317998.8232653204, 4358380.1429449385], [317998.8232653204, 4358470.1429449385], [317878.8232653204, 4358470.1429449385], [317878.8232653204, 4358500.1429449385], [317848.8232653204, 4358500.1429449385], [317848.8232653204, 4358590.1429449385], [317878.8232653204, 4358590.1429449385], [317878.8232653204, 4359010.1429449385], [317818.8232653204, 4359010.1429449385], [317818.8232653204, 4359040.1429449385], [317788.8232653204, 4359040.1429449385], [317788.8232653204, 4359130.1429449385], [317758.8232653204, 4359130.1429449385], [317758.8232653204, 4359190.1429449385], [317728.8232653204, 4359190.1429449385], [317728.8232653204, 4359220.1429449385], [317698.8232653204, 4359220.1429449385], [317698.8232653204, 4359280.1429449385], [317728.8232653204, 4359280.1429449385], [317728.8232653204, 4359310.1429449385], [317698.8232653204, 4359310.1429449385], [317698.8232653204, 4359370.1429449385], [317788.8232653204, 4359370.1429449385], [317788.8232653204, 4359460.1429449385], [317818.8232653204, 4359460.1429449385], [317818.8232653204, 4359610.1429449385], [317848.8232653204, 4359610.1429449385], [317848.8232653204, 4359670.1429449385], [317908.8232653204, 4359670.1429449385], [317908.8232653204, 4359700.1429449385], [317938.8232653204, 4359700.1429449385], [317938.8232653204, 4359760.1429449385], [317968.8232653204, 4359760.1429449385], [317968.8232653204, 4359820.1429449385], [317998.8232653204, 4359820.1429449385], [317998.8232653204, 4359850.1429449385], [318028.8232653204, 4359850.1429449385], [318028.8232653204, 4359880.1429449385], [318058.8232653204, 4359880.1429449385], [318058.8232653204, 4359910.1429449385], [318118.8232653204, 4359910.1429449385], [318118.8232653204, 4359970.1429449385], [318148.8232653204, 4359970.1429449385], [318148.8232653204, 4360060.1429449385], [318208.8232653204, 4360060.1429449385], [318208.8232653204, 4360090.1429449385], [318268.8232653204, 4360090.1429449385], [318268.8232653204, 4360150.1429449385], [318238.8232653204, 4360150.1429449385], [318238.8232653204, 4360210.1429449385], [318268.8232653204, 4360210.1429449385], [318268.8232653204, 4360300.1429449385], [318298.8232653204, 4360300.1429449385], [318298.8232653204, 4360390.1429449385], [318328.8232653204, 4360390.1429449385], [318328.8232653204, 4360360.1429449385], [318388.8232653204, 4360360.1429449385], [318388.8232653204, 4360450.1429449385], [318358.8232653204, 4360450.1429449385], [318358.8232653204, 4360510.1429449385], [318388.8232653204, 4360510.1429449385], [318388.8232653204, 4360540.1429449385], [318448.8232653204, 4360540.1429449385], [318448.8232653204, 4360630.1429449385], [318478.8232653204, 4360630.1429449385], [318478.8232653204, 4360690.1429449385], [318448.8232653204, 4360690.1429449385], [318448.8232653204, 4360810.1429449385], [318538.8232653204, 4360810.1429449385], [318538.8232653204, 4360840.1429449385], [318508.8232653204, 4360840.1429449385], [318508.8232653204, 4360930.1429449385], [318598.8232653204, 4360930.1429449385], [318598.8232653204, 4360960.1429449385], [318568.8232653204, 4360960.1429449385], [318568.8232653204, 4361140.1429449385], [318598.8232653204, 4361140.1429449385], [318598.8232653204, 4361170.1429449385], [318628.8232653204, 4361170.1429449385], [318628.8232653204, 4361380.1429449385], [318598.8232653204, 4361380.1429449385], [318598.8232653204, 4361440.1429449385], [318478.8232653204, 4361440.1429449385], [318478.8232653204, 4361470.1429449385], [318448.8232653204, 4361470.1429449385], [318448.8232653204, 4361620.1429449385], [318478.8232653204, 4361620.1429449385], [318478.8232653204, 4361740.1429449385], [318448.8232653204, 4361740.1429449385], [318448.8232653204, 4361770.1429449385], [318388.8232653204, 4361770.1429449385], [318388.8232653204, 4361800.1429449385], [318358.8232653204, 4361800.1429449385], [318358.8232653204, 4361830.1429449385], [318328.8232653204, 4361830.1429449385], [318328.8232653204, 4361860.1429449385], [318298.8232653204, 4361860.1429449385], [318298.8232653204, 4361890.1429449385], [318358.8232653204, 4361890.1429449385], [318358.8232653204, 4362010.1429449385], [318388.8232653204, 4362010.1429449385], [318388.8232653204, 4362070.1429449385], [318418.8232653204, 4362070.1429449385], [318418.8232653204, 4362100.1429449385], [318478.8232653204, 4362100.1429449385], [318478.8232653204, 4362160.1429449385], [318448.8232653204, 4362160.1429449385], [318448.8232653204, 4362280.1429449385], [318418.8232653204, 4362280.1429449385], [318418.8232653204, 4362340.1429449385], [318388.8232653204, 4362340.1429449385], [318388.8232653204, 4362400.1429449385], [318298.8232653204, 4362400.1429449385], [318298.8232653204, 4362460.1429449385], [318268.8232653204, 4362460.1429449385], [318268.8232653204, 4362550.1429449385], [318298.8232653204, 4362550.1429449385], [318298.8232653204, 4362580.1429449385], [318328.8232653204, 4362580.1429449385], [318328.8232653204, 4362670.1429449385], [318388.8232653204, 4362670.1429449385], [318388.8232653204, 4362700.1429449385], [318418.8232653204, 4362700.1429449385], [318418.8232653204, 4362790.1429449385], [318388.8232653204, 4362790.1429449385], [318388.8232653204, 4362820.1429449385], [318358.8232653204, 4362820.1429449385], [318358.8232653204, 4362850.1429449385], [318388.8232653204, 4362850.1429449385], [318388.8232653204, 4362880.1429449385], [318358.8232653204, 4362880.1429449385], [318358.8232653204, 4362940.1429449385], [318298.8232653204, 4362940.1429449385], [318298.8232653204, 4362970.1429449385], [318238.8232653204, 4362970.1429449385], [318238.8232653204, 4363030.1429449385], [318208.8232653204, 4363030.1429449385], [318208.8232653204, 4363060.1429449385], [318148.8232653204, 4363060.1429449385], [318148.8232653204, 4363090.1429449385], [318058.8232653204, 4363090.1429449385], [318058.8232653204, 4363150.1429449385], [318028.8232653204, 4363150.1429449385], [318028.8232653204, 4363240.1429449385], [317968.8232653204, 4363240.1429449385], [317968.8232653204, 4363300.1429449385], [317938.8232653204, 4363300.1429449385], [317938.8232653204, 4363330.1429449385], [317878.8232653204, 4363330.1429449385], [317878.8232653204, 4363360.1429449385], [317818.8232653204, 4363360.1429449385], [317818.8232653204, 4363390.1429449385], [317788.8232653204, 4363390.1429449385], [317788.8232653204, 4363360.1429449385], [317638.8232653204, 4363360.1429449385], [317638.8232653204, 4363450.1429449385], [317608.8232653204, 4363450.1429449385], [317608.8232653204, 4363570.1429449385], [317518.8232653204, 4363570.1429449385], [317518.8232653204, 4363600.1429449385], [317398.8232653204, 4363600.1429449385], [317398.8232653204, 4363630.1429449385], [317368.8232653204, 4363630.1429449385], [317368.8232653204, 4363660.1429449385], [317338.8232653204, 4363660.1429449385], [317338.8232653204, 4363690.1429449385], [317218.8232653204, 4363690.1429449385], [317218.8232653204, 4363720.1429449385], [317158.8232653204, 4363720.1429449385], [317158.8232653204, 4363780.1429449385], [317128.8232653204, 4363780.1429449385], [317128.8232653204, 4363810.1429449385], [317098.8232653204, 4363810.1429449385], [317098.8232653204, 4363870.1429449385], [317038.8232653204, 4363870.1429449385], [317038.8232653204, 4363930.1429449385], [317008.8232653204, 4363930.1429449385], [317008.8232653204, 4363960.1429449385], [316978.8232653204, 4363960.1429449385], [316978.8232653204, 4363990.1429449385], [316828.8232653204, 4363990.1429449385], [316828.8232653204, 4364110.1429449385], [316708.8232653204, 4364110.1429449385], [316708.8232653204, 4364140.1429449385], [316618.8232653204, 4364140.1429449385], [316618.8232653204, 4364080.1429449385], [316438.8232653204, 4364080.1429449385], [316438.8232653204, 4364050.1429449385], [316258.8232653204, 4364050.1429449385], [316258.8232653204, 4364080.1429449385], [316198.8232653204, 4364080.1429449385], [316198.8232653204, 4364020.1429449385], [316108.8232653204, 4364020.1429449385], [316108.8232653204, 4364110.1429449385], [316048.8232653204, 4364110.1429449385], [316048.8232653204, 4364170.1429449385], [316018.8232653204, 4364170.1429449385], [316018.8232653204, 4364200.1429449385], [316048.8232653204, 4364200.1429449385], [316048.8232653204, 4364260.1429449385], [316018.8232653204, 4364260.1429449385], [316018.8232653204, 4364320.1429449385], [315928.8232653204, 4364320.1429449385], [315928.8232653204, 4364350.1429449385], [315838.8232653204, 4364350.1429449385], [315838.8232653204, 4364380.1429449385], [315778.8232653204, 4364380.1429449385], [315778.8232653204, 4364560.1429449385], [315748.8232653204, 4364560.1429449385], [315748.8232653204, 4364590.1429449385], [315778.8232653204, 4364590.1429449385], [315778.8232653204, 4364620.1429449385], [315808.8232653204, 4364620.1429449385], [315808.8232653204, 4364650.1429449385], [315838.8232653204, 4364650.1429449385], [315838.8232653204, 4364710.1429449385], [315868.8232653204, 4364710.1429449385], [315868.8232653204, 4364770.1429449385], [315898.8232653204, 4364770.1429449385], [315898.8232653204, 4364800.1429449385], [315928.8232653204, 4364800.1429449385], [315928.8232653204, 4364830.1429449385], [315898.8232653204, 4364830.1429449385], [315898.8232653204, 4364860.1429449385], [315838.8232653204, 4364860.1429449385], [315838.8232653204, 4364950.1429449385], [315808.8232653204, 4364950.1429449385], [315808.8232653204, 4365010.1429449385], [315838.8232653204, 4365010.1429449385], [315838.8232653204, 4365040.1429449385], [315868.8232653204, 4365040.1429449385], [315868.8232653204, 4365070.1429449385], [315838.8232653204, 4365070.1429449385], [315838.8232653204, 4365100.1429449385], [315808.8232653204, 4365100.1429449385], [315808.8232653204, 4365190.1429449385], [315838.8232653204, 4365190.1429449385], [315838.8232653204, 4365220.1429449385], [315868.8232653204, 4365220.1429449385], [315868.8232653204, 4365310.1429449385], [315778.8232653204, 4365310.1429449385], [315778.8232653204, 4365400.1429449385], [315808.8232653204, 4365400.1429449385], [315808.8232653204, 4365520.1429449385], [315718.8232653204, 4365520.1429449385], [315718.8232653204, 4365550.1429449385], [315688.8232653204, 4365550.1429449385], [315688.8232653204, 4365610.1429449385], [315628.8232653204, 4365610.1429449385], [315628.8232653204, 4365640.1429449385], [315568.8232653204, 4365640.1429449385], [315568.8232653204, 4365700.1429449385], [315538.8232653204, 4365700.1429449385], [315538.8232653204, 4365760.1429449385], [315568.8232653204, 4365760.1429449385], [315568.8232653204, 4365790.1429449385], [315538.8232653204, 4365790.1429449385], [315538.8232653204, 4365850.1429449385], [315508.8232653204, 4365850.1429449385], [315508.8232653204, 4365880.1429449385], [315478.8232653204, 4365880.1429449385], [315478.8232653204, 4365910.1429449385], [315448.8232653204, 4365910.1429449385], [315448.8232653204, 4365940.1429449385], [315418.8232653204, 4365940.1429449385], [315418.8232653204, 4365970.1429449385], [315388.8232653204, 4365970.1429449385], [315388.8232653204, 4366000.1429449385], [315268.8232653204, 4366000.1429449385], [315268.8232653204, 4366030.1429449385], [315238.8232653204, 4366030.1429449385], [315238.8232653204, 4366060.1429449385], [315148.8232653204, 4366060.1429449385], [315148.8232653204, 4366090.1429449385], [315178.8232653204, 4366090.1429449385], [315178.8232653204, 4366120.1429449385], [315118.8232653204, 4366120.1429449385], [315118.8232653204, 4366150.1429449385], [314998.8232653204, 4366150.1429449385]]]}}]}