{"type": "FeatureCollection", "crs": {"type": "name", "properties": {"name": "EPSG:32642"}}, "features": [{"type": "Feature", "properties": {"name": "Main flow path"}, "geometry": {"type": "LineString", "coordinates": [[309073.8232653204, 4352365.1429449385], [309103.8232653204, 4352365.1429449385], [309133.8232653204, 4352395.1429449385], [309163.8232653204, 4352365.1429449385], [309193.8232653204, 4352365.1429449385], [309223.8232653204, 4352395.1429449385], [309253.8232653204, 4352395.1429449385], [309283.8232653204, 4352425.1429449385], [309313.8232653204, 4352425.1429449385], [309343.8232653204, 4352455.1429449385], [309373.8232653204, 4352455.1429449385], [309403.8232653204, 4352455.1429449385], [309433.8232653204, 4352485.1429449385], [309463.8232653204, 4352515.1429449385], [309463.8232653204, 4352545.1429449385], [309463.8232653204, 4352575.1429449385], [309493.8232653204, 4352605.1429449385], [309493.8232653204, 4352635.1429449385], [309493.8232653204, 4352665.1429449385], [309493.8232653204, 4352695.1429449385], [309523.8232653204, 4352725.1429449385], [309553.8232653204, 4352725.1429449385], [309583.8232653204, 4352755.1429449385], [309613.8232653204, 4352785.1429449385], [309643.8232653204, 4352815.1429449385], [309673.8232653204, 4352845.1429449385], [309703.8232653204, 4352875.1429449385], [309733.8232653204, 4352905.1429449385], [309733.8232653204, 4352935.1429449385], [309733.8232653204, 4352965.1429449385], [309733.8232653204, 4352995.1429449385], [309763.8232653204, 4353025.1429449385], [309763.8232653204, 4353055.1429449385], [309793.8232653204, 4353085.1429449385], [309793.8232653204, 4353115.1429449385], [309793.8232653204, 4353145.1429449385], [309823.8232653204, 4353175.1429449385], [309853.8232653204, 4353205.1429449385], [309883.8232653204, 4353235.1429449385], [309883.8232653204, 4353265.1429449385], [309913.8232653204, 4353295.1429449385], [309943.8232653204, 4353325.1429449385], [309943.8232653204, 4353355.1429449385], [309973.8232653204, 4353385.1429449385], [310003.8232653204, 4353415.1429449385], [310003.8232653204, 4353445.1429449385], [310033.8232653204, 4353475.1429449385], [310033.8232653204, 4353505.1429449385], [310063.8232653204, 4353535.1429449385], [310093.8232653204, 4353565.1429449385], [310123.8232653204, 4353595.1429449385], [310153.8232653204, 4353595.1429449385], [310183.8232653204, 4353595.1429449385], [310213.8232653204, 4353595.1429449385], [310243.8232653204, 4353595.1429449385], [310273.8232653204, 4353595.1429449385], [310303.8232653204, 4353595.1429449385], [310333.8232653204, 4353625.1429449385], [310363.8232653204, 4353625.1429449385], [310393.8232653204, 4353625.1429449385], [310423.8232653204, 4353625.1429449385], [310453.8232653204, 4353625.1429449385], [310483.8232653204, 4353625.1429449385], [310513.8232653204, 4353655.1429449385], [310543.8232653204, 4353685.1429449385], [310573.8232653204, 4353715.1429449385], [310603.8232653204, 4353745.1429449385], [310633.8232653204, 4353775.1429449385], [310663.8232653204, 4353805.1429449385], [310693.8232653204, 4353805.1429449385], [310723.8232653204, 4353835.1429449385], [310753.8232653204, 4353865.1429449385], [310783.8232653204, 4353895.1429449385], [310813.8232653204, 4353895.1429449385], [310843.8232653204, 4353925.1429449385], [310873.8232653204, 4353955.1429449385], [310903.8232653204, 4353955.1429449385], [310933.8232653204, 4353955.1429449385], [310963.8232653204, 4353985.1429449385], [310993.8232653204, 4354015.1429449385], [311023.8232653204, 4354045.1429449385], [311053.8232653204, 4354075.1429449385], [311083.8232653204, 4354105.1429449385], [311113.8232653204, 4354105.1429449385], [311143.8232653204, 4354075.1429449385], [311173.8232653204, 4354075.1429449385], [311203.8232653204, 4354075.1429449385], [311233.8232653204, 4354075.1429449385], [311263.8232653204, 4354075.1429449385], [311293.8232653204, 4354105.1429449385], [311323.8232653204, 4354135.1429449385], [311353.8232653204, 4354165.1429449385], [311383.8232653204, 4354195.1429449385], [311413.8232653204, 4354195.1429449385], [311443.8232653204, 4354225.1429449385], [311473.8232653204, 4354255.1429449385], [311503.8232653204, 4354255.1429449385], [311533.8232653204, 4354255.1429449385], [311563.8232653204, 4354255.1429449385], [311593.8232653204, 4354255.1429449385], [311623.8232653204, 4354285.1429449385], [311653.8232653204, 4354285.1429449385], [311683.8232653204, 4354285.1429449385], [311713.8232653204, 4354285.1429449385], [311743.8232653204, 4354285.1429449385], [311773.8232653204, 4354315.1429449385], [311803.8232653204, 4354345.1429449385], [311833.8232653204, 4354345.1429449385], [311863.8232653204, 4354375.1429449385], [311893.8232653204, 4354375.1429449385], [311923.8232653204, 4354405.1429449385], [311953.8232653204, 4354435.1429449385], [311953.8232653204, 4354465.1429449385], [311983.8232653204, 4354495.1429449385], [311983.8232653204, 4354525.1429449385], [312013.8232653204, 4354555.1429449385], [312043.8232653204, 4354585.1429449385], [312073.8232653204, 4354615.1429449385], [312103.8232653204, 4354645.1429449385], [312103.8232653204, 4354675.1429449385], [312103.8232653204, 4354705.1429449385], [312133.8232653204, 4354735.1429449385], [312133.8232653204, 4354765.1429449385], [312163.8232653204, 4354795.1429449385], [312193.8232653204, 4354825.1429449385], [312193.8232653204, 4354855.1429449385], [312223.8232653204, 4354885.1429449385], [312223.8232653204, 4354915.1429449385], [312253.8232653204, 4354945.1429449385], [312283.8232653204, 4354975.1429449385], [312283.8232653204, 4355005.1429449385], [312283.8232653204, 4355035.1429449385], [312313.8232653204, 4355065.1429449385], [312313.8232653204, 4355095.1429449385], [312343.8232653204, 4355125.1429449385], [312373.8232653204, 4355155.1429449385], [312403.8232653204, 4355185.1429449385], [312433.8232653204, 4355215.1429449385], [312463.8232653204, 4355215.1429449385], [312493.8232653204, 4355245.1429449385], [312523.8232653204, 4355275.1429449385], [312553.8232653204, 4355305.1429449385], [312583.8232653204, 4355335.1429449385], [312613.8232653204, 4355335.1429449385], [312643.8232653204, 4355335.1429449385], [312673.8232653204, 4355335.1429449385], [312703.8232653204, 4355335.1429449385], [312733.8232653204, 4355335.1429449385], [312763.8232653204, 4355365.1429449385], [312793.8232653204, 4355395.1429449385], [312823.8232653204, 4355395.1429449385], [312853.8232653204, 4355395.1429449385], [312883.8232653204, 4355425.1429449385], [312913.8232653204, 4355455.1429449385], [312943.8232653204, 4355485.1429449385], [312973.8232653204, 4355515.1429449385], [313003.8232653204, 4355515.1429449385], [313033.8232653204, 4355515.1429449385], [313063.8232653204, 4355545.1429449385], [313093.8232653204, 4355545.1429449385], [313123.8232653204, 4355545.1429449385], [313153.8232653204, 4355575.1429449385], [313183.8232653204, 4355575.1429449385], [313213.8232653204, 4355605.1429449385], [313243.8232653204, 4355635.1429449385], [313243.8232653204, 4355665.1429449385], [313273.8232653204, 4355695.1429449385], [313303.8232653204, 4355725.1429449385], [313333.8232653204, 4355755.1429449385], [313363.8232653204, 4355755.1429449385], [313393.8232653204, 4355785.1429449385], [313423.8232653204, 4355815.1429449385], [313453.8232653204, 4355845.1429449385], [313483.8232653204, 4355875.1429449385], [313483.8232653204, 4355905.1429449385], [313483.8232653204, 4355935.1429449385], [313513.8232653204, 4355965.1429449385], [313543.8232653204, 4355995.1429449385], [313573.8232653204, 4356025.1429449385], [313603.8232653204, 4356025.1429449385], [313633.8232653204, 4356055.1429449385], [313663.8232653204, 4356085.1429449385], [313693.8232653204, 4356115.1429449385], [313723.8232653204, 4356145.1429449385], [313753.8232653204, 4356145.1429449385], [313783.8232653204, 4356145.1429449385], [313813.8232653204, 4356145.1429449385], [313843.8232653204, 4356175.1429449385], [313873.8232653204, 4356175.1429449385], [313903.8232653204, 4356175.1429449385], [313933.8232653204, 4356205.1429449385], [313963.8232653204, 4356235.1429449385], [313993.8232653204, 4356235.1429449385], [314023.8232653204, 4356265.1429449385], [314053.8232653204, 4356295.1429449385], [314053.8232653204, 4356325.1429449385], [314083.8232653204, 4356355.1429449385], [314083.8232653204, 4356385.1429449385], [314113.8232653204, 4356415.1429449385], [314113.8232653204, 4356445.1429449385], [314143.8232653204, 4356475.1429449385], [314173.8232653204, 4356505.1429449385], [314203.8232653204, 4356535.1429449385], [314203.8232653204, 4356565.1429449385], [314173.8232653204, 4356595.1429449385], [314173.8232653204, 4356625.1429449385], [314173.8232653204, 4356655.1429449385], [314173.8232653204, 4356685.1429449385], [314173.8232653204, 4356715.1429449385], [314173.8232653204, 4356745.1429449385], [314203.8232653204, 4356775.1429449385], [314203.8232653204, 4356805.1429449385], [314203.8232653204, 4356835.1429449385], [314203.8232653204, 4356865.1429449385], [314203.8232653204, 4356895.1429449385], [314233.8232653204, 4356925.1429449385], [314233.8232653204, 4356955.1429449385], [314263.8232653204, 4356985.1429449385], [314263.8232653204, 4357015.1429449385], [314293.8232653204, 4357045.1429449385], [314323.8232653204, 4357075.1429449385], [314353.8232653204, 4357105.1429449385], [314383.8232653204, 4357135.1429449385], [314413.8232653204, 4357165.1429449385], [314413.8232653204, 4357195.1429449385], [314413.8232653204, 4357225.1429449385], [314413.8232653204, 4357255.1429449385], [314443.8232653204, 4357285.1429449385], [314443.8232653204, 4357315.1429449385], [314443.8232653204, 4357345.1429449385], [314443.8232653204, 4357375.1429449385], [314443.8232653204, 4357405.1429449385], [314443.8232653204, 4357435.1429449385], [314413.8232653204, 4357465.1429449385], [314413.8232653204, 4357495.1429449385], [314383.8232653204, 4357525.1429449385], [314383.8232653204, 4357555.1429449385], [314383.8232653204, 4357585.1429449385], [314353.8232653204, 4357615.1429449385], [314353.8232653204, 4357645.1429449385], [314353.8232653204, 4357675.1429449385], [314353.8232653204, 4357705.1429449385], [314323.8232653204, 4357735.1429449385], [314353.8232653204, 4357765.1429449385], [314383.8232653204, 4357795.1429449385], [314383.8232653204, 4357825.1429449385], [314383.8232653204, 4357855.1429449385], [314413.8232653204, 4357885.1429449385], [314413.8232653204, 4357915.1429449385], [314413.8232653204, 4357945.1429449385], [314413.8232653204, 4357975.1429449385], [314443.8232653204, 4358005.1429449385], [314443.8232653204, 4358035.1429449385], [314443.8232653204, 4358065.1429449385], [314443.8232653204, 4358095.1429449385], [314473.8232653204, 4358125.1429449385], [314473.8232653204, 4358155.1429449385], [314473.8232653204, 4358185.1429449385], [314503.8232653204, 4358215.1429449385], [314503.8232653204, 4358245.1429449385], [314533.8232653204, 4358275.1429449385], [314533.8232653204, 4358305.1429449385], [314533.8232653204, 4358335.1429449385], [314533.8232653204, 4358365.1429449385], [314533.8232653204, 4358395.1429449385], [314533.8232653204, 4358425.1429449385], [314533.8232653204, 4358455.1429449385], [314533.8232653204, 4358485.1429449385], [314533.8232653204, 4358515.1429449385], [314563.8232653204, 4358545.1429449385], [314563.8232653204, 4358575.1429449385], [314593.8232653204, 4358605.1429449385], [314593.8232653204, 4358635.1429449385], [314623.8232653204, 4358665.1429449385], [314653.8232653204, 4358695.1429449385], [314653.8232653204, 4358725.1429449385], [314683.8232653204, 4358755.1429449385], [314713.8232653204, 4358785.1429449385], [314713.8232653204, 4358815.1429449385], [314713.8232653204, 4358845.1429449385], [314713.8232653204, 4358875.1429449385], [314713.8232653204, 4358905.1429449385], [314743.8232653204, 4358935.1429449385], [314743.8232653204, 4358965.1429449385], [314773.8232653204, 4358995.1429449385], [314743.8232653204, 4359025.1429449385], [314743.8232653204, 4359055.1429449385], [314743.8232653204, 4359085.1429449385], [314773.8232653204, 4359115.1429449385], [314773.8232653204, 4359145.1429449385], [314773.8232653204, 4359175.1429449385], [314773.8232653204, 4359205.1429449385], [314773.8232653204, 4359235.1429449385], [314773.8232653204, 4359265.1429449385], [314803.8232653204, 4359295.1429449385], [314803.8232653204, 4359325.1429449385], [314803.8232653204, 4359355.1429449385], [314803.8232653204, 4359385.1429449385], [314803.8232653204, 4359415.1429449385], [314803.8232653204, 4359445.1429449385], [314803.8232653204, 4359475.1429449385], [314803.8232653204, 4359505.1429449385], [314803.8232653204, 4359535.1429449385], [314803.8232653204, 4359565.1429449385], [314803.8232653204, 4359595.1429449385], [314803.8232653204, 4359625.1429449385], [314833.8232653204, 4359655.1429449385], [314833.8232653204, 4359685.1429449385], [314833.8232653204, 4359715.1429449385], [314803.8232653204, 4359745.1429449385], [314773.8232653204, 4359775.1429449385], [314773.8232653204, 4359805.1429449385], [314773.8232653204, 4359835.1429449385], [314743.8232653204, 4359865.1429449385], [314713.8232653204, 4359895.1429449385], [314713.8232653204, 4359925.1429449385], [314713.8232653204, 4359955.1429449385], [314713.8232653204, 4359985.1429449385], [314713.8232653204, 4360015.1429449385], [314683.8232653204, 4360045.1429449385], [314713.8232653204, 4360075.1429449385], [314713.8232653204, 4360105.1429449385], [314713.8232653204, 4360135.1429449385], [314743.8232653204, 4360165.1429449385], [314773.8232653204, 4360195.1429449385], [314803.8232653204, 4360225.1429449385], [314803.8232653204, 4360255.1429449385], [314803.8232653204, 4360285.1429449385], [314773.8232653204, 4360315.1429449385], [314743.8232653204, 4360345.1429449385], [314713.8232653204, 4360375.1429449385], [314713.8232653204, 4360405.1429449385], [314683.8232653204, 4360435.1429449385], [314683.8232653204, 4360465.1429449385], [314683.8232653204, 4360495.1429449385], [314653.8232653204, 4360525.1429449385], [314653.8232653204, 4360555.1429449385], [314623.8232653204, 4360585.1429449385], [314593.8232653204, 4360615.1429449385], [314563.8232653204, 4360645.1429449385], [314563.8232653204, 4360675.1429449385], [314533.8232653204, 4360705.1429449385], [314503.8232653204, 4360735.1429449385], [314503.8232653204, 4360765.1429449385], [314473.8232653204, 4360795.1429449385], [314503.8232653204, 4360825.1429449385], [314503.8232653204, 4360855.1429449385], [314503.8232653204, 4360885.1429449385], [314533.8232653204, 4360915.1429449385], [314503.8232653204, 4360945.1429449385], [314533.8232653204, 4360975.1429449385], [314533.8232653204, 4361005.1429449385], [314533.8232653204, 4361035.1429449385], [314533.8232653204, 4361065.1429449385], [314533.8232653204, 4361095.1429449385], [314533.8232653204, 4361125.1429449385], [314533.8232653204, 4361155.1429449385], [314503.8232653204, 4361185.1429449385], [314473.8232653204, 4361185.1429449385], [314443.8232653204, 4361215.1429449385], [314413.8232653204, 4361245.1429449385], [314383.8232653204, 4361275.1429449385], [314383.8232653204, 4361305.1429449385], [314383.8232653204, 4361335.1429449385], [314353.8232653204, 4361365.1429449385], [314353.8232653204, 4361395.1429449385], [314353.8232653204, 4361425.1429449385], [314353.8232653204, 4361455.1429449385], [314323.8232653204, 4361485.1429449385], [314323.8232653204, 4361515.1429449385], [314323.8232653204, 4361545.1429449385], [314323.8232653204, 4361575.1429449385], [314323.8232653204, 4361605.1429449385], [314293.8232653204, 4361635.1429449385], [314293.8232653204, 4361665.1429449385], [314293.8232653204, 4361695.1429449385], [314263.8232653204, 4361725.1429449385], [314263.8232653204, 4361755.1429449385], [314263.8232653204, 4361785.1429449385], [314233.8232653204, 4361815.1429449385], [314233.8232653204, 4361845.1429449385], [314233.8232653204, 4361875.1429449385], [314233.8232653204, 4361905.1429449385], [314263.8232653204, 4361935.1429449385], [314233.8232653204, 4361965.1429449385], [314203.8232653204, 4361995.1429449385], [314173.8232653204, 4362025.1429449385], [314173.8232653204, 4362055.1429449385], [314173.8232653204, 4362085.1429449385], [314173.8232653204, 4362115.1429449385], [314173.8232653204, 4362145.1429449385], [314203.8232653204, 4362175.1429449385], [314173.8232653204, 4362205.1429449385], [314143.8232653204, 4362235.1429449385], [314143.8232653204, 4362265.1429449385], [314143.8232653204, 4362295.1429449385], [314113.8232653204, 4362325.1429449385], [314083.8232653204, 4362355.1429449385], [314053.8232653204, 4362385.1429449385], [314023.8232653204, 4362415.1429449385], [313993.8232653204, 4362445.1429449385], [313963.8232653204, 4362475.1429449385], [313933.8232653204, 4362505.1429449385], [313933.8232653204, 4362535.1429449385], [313903.8232653204, 4362565.1429449385], [313873.8232653204, 4362595.1429449385], [313843.8232653204, 4362625.1429449385], [313843.8232653204, 4362655.1429449385], [313843.8232653204, 4362685.1429449385], [313813.8232653204, 4362715.1429449385], [313813.8232653204, 4362745.1429449385], [313813.8232653204, 4362775.1429449385], [313813.8232653204, 4362805.1429449385], [313813.8232653204, 4362835.1429449385], [313843.8232653204, 4362865.1429449385], [313843.8232653204, 4362895.1429449385], [313813.8232653204, 4362925.1429449385], [313813.8232653204, 4362955.1429449385], [313813.8232653204, 4362985.1429449385], [313813.8232653204, 4363015.1429449385], [313843.8232653204, 4363045.1429449385], [313843.8232653204, 4363075.1429449385], [313843.8232653204, 4363105.1429449385], [313843.8232653204, 4363135.1429449385], [313873.8232653204, 4363165.1429449385], [313873.8232653204, 4363195.1429449385], [313873.8232653204, 4363225.1429449385], [313903.8232653204, 4363255.1429449385], [313903.8232653204, 4363285.1429449385], [313933.8232653204, 4363315.1429449385], [313933.8232653204, 4363345.1429449385], [313933.8232653204, 4363375.1429449385], [313933.8232653204, 4363405.1429449385], [313963.8232653204, 4363435.1429449385], [313963.8232653204, 4363465.1429449385], [313963.8232653204, 4363495.1429449385], [313993.8232653204, 4363525.1429449385], [313993.8232653204, 4363555.1429449385], [313993.8232653204, 4363585.1429449385], [313993.8232653204, 4363615.1429449385], [313963.8232653204, 4363645.1429449385], [313963.8232653204, 4363675.1429449385], [313993.8232653204, 4363705.1429449385], [313993.8232653204, 4363735.1429449385], [313993.8232653204, 4363765.1429449385], [314023.8232653204, 4363795.1429449385], [314023.8232653204, 4363825.1429449385], [314023.8232653204, 4363855.1429449385], [314053.8232653204, 4363885.1429449385], [314023.8232653204, 4363915.1429449385], [314053.8232653204, 4363945.1429449385], [314053.8232653204, 4363975.1429449385], [314053.8232653204, 4364005.1429449385], [314083.8232653204, 4364035.1429449385], [314083.8232653204, 4364065.1429449385], [314083.8232653204, 4364095.1429449385], [314113.8232653204, 4364125.1429449385], [314113.8232653204, 4364155.1429449385], [314113.8232653204, 4364185.1429449385], [314143.8232653204, 4364215.1429449385], [314143.8232653204, 4364245.1429449385], [314113.8232653204, 4364275.1429449385], [314143.8232653204, 4364305.1429449385], [314113.8232653204, 4364335.1429449385], [314143.8232653204, 4364365.1429449385], [314143.8232653204, 4364395.1429449385], [314143.8232653204, 4364425.1429449385], [314143.8232653204, 4364455.1429449385], [314143.8232653204, 4364485.1429449385], [314173.8232653204, 4364515.1429449385], [314173.8232653204, 4364545.1429449385], [314173.8232653204, 4364575.1429449385], [314173.8232653204, 4364605.1429449385], [314173.8232653204, 4364635.1429449385], [314203.8232653204, 4364665.1429449385], [314233.8232653204, 4364695.1429449385], [314233.8232653204, 4364725.1429449385], [314233.8232653204, 4364755.1429449385], [314263.8232653204, 4364785.1429449385], [314233.8232653204, 4364815.1429449385], [314263.8232653204, 4364845.1429449385], [314293.8232653204, 4364875.1429449385], [314293.8232653204, 4364905.1429449385], [314293.8232653204, 4364935.1429449385], [314293.8232653204, 4364965.1429449385], [314323.8232653204, 4364995.1429449385], [314323.8232653204, 4365025.1429449385], [314353.8232653204, 4365055.1429449385], [314383.8232653204, 4365085.1429449385], [314413.8232653204, 4365115.1429449385], [314443.8232653204, 4365115.1429449385], [314473.8232653204, 4365115.1429449385], [314503.8232653204, 4365145.1429449385], [314533.8232653204, 4365175.1429449385], [314563.8232653204, 4365205.1429449385], [314593.8232653204, 4365235.1429449385], [314623.8232653204, 4365265.1429449385], [314653.8232653204, 4365295.1429449385], [314683.8232653204, 4365325.1429449385], [314713.8232653204, 4365355.1429449385], [314743.8232653204, 4365355.1429449385], [314773.8232653204, 4365385.1429449385], [314803.8232653204, 4365385.1429449385], [314833.8232653204, 4365385.1429449385], [314863.8232653204, 4365415.1429449385], [314893.8232653204, 4365415.1429449385], [314923.8232653204, 4365415.1429449385], [314953.8232653204, 4365445.1429449385], [314983.8232653204, 4365415.1429449385], [315013.8232653204, 4365385.1429449385], [315043.8232653204, 4365385.1429449385], [315073.8232653204, 4365385.1429449385], [315103.8232653204, 4365355.1429449385], [315133.8232653204, 4365355.1429449385], [315163.8232653204, 4365355.1429449385], [315193.8232653204, 4365355.1429449385], [315223.8232653204, 4365355.1429449385], [315253.8232653204, 4365355.1429449385], [315283.8232653204, 4365385.1429449385], [315313.8232653204, 4365355.1429449385], [315343.8232653204, 4365355.1429449385], [315373.8232653204, 4365325.1429449385], [315403.8232653204, 4365325.1429449385], [315433.8232653204, 4365325.1429449385], [315463.8232653204, 4365295.1429449385], [315493.8232653204, 4365265.1429449385], [315523.8232653204, 4365295.1429449385], [315553.8232653204, 4365295.1429449385], [315583.8232653204, 4365295.1429449385], [315613.8232653204, 4365325.1429449385], [315643.8232653204, 4365355.1429449385], [315673.8232653204, 4365385.1429449385], [315703.8232653204, 4365415.1429449385], [315733.8232653204, 4365445.1429449385], [315763.8232653204, 4365475.1429449385], [315793.8232653204, 4365505.1429449385]]}}]}